street_address,zip,row,cleaned_address,is_intersection,stnum1,stnum2,stdir,stname,sttype,full_address,lat,long,matched_address,geocoder,m_is_intersection,m_street,m_stnum1,m_stnum2,m_stdir,m_stname,m_sttype,m_zip
11700 S FRONT AVE,60628,112036,11700 S,FALSE,11700,11700,S,FRONT,AVE,"11700 S FRONT AVE, CHICAGO IL 60628",41.6817417,-87.6388336,"11700 S LOWE AVE, CHICAGO, IL, 60628",Bing,FALSE,11700 S LOWE AVE,11700,11700,S,LOWE,AVE,60628
11728-42 S FRONT AVE,60628,153989,11728-42 S,FALSE,11728,11742,S,FRONT,AVE,"11728-42 S FRONT AVE, CHICAGO IL 60628",41.680721,-87.625506,"11728 S PERRY AVE, CHICAGO, IL, 60628",Bing,FALSE,11728 S PERRY AVE,11728,11728,S,PERRY,AVE,60628
11328-32 S FRONT AVE,60628,155128,11328-32 S,FALSE,11328,11332,S,FRONT,AVE,"11328-32 S FRONT AVE, CHICAGO IL 60628",41.68812538,-87.62575909,"11328 S PERRY AVE, CHICAGO, IL, 60628",Bing,FALSE,11328 S PERRY AVE,11328,11328,S,PERRY,AVE,60628
11572 S FRONT AVE,60628,179822,11572 S FRONT AVE,FALSE,11572,11572,S,FRONT,AVE,"11572 S FRONT AVE, CHICAGO IL 60628",41.683155,-87.625597,"11572 S PERRY AVE, CHICAGO, IL, 60628",Bing,FALSE,11572 S PERRY AVE,11572,11572,S,PERRY,AVE,60628
1224 S KOLIN AVE,60623,187817,1224 S KOLIN AVE,FALSE,1224,1224,S,KOLIN,AVE,"1224 S KOLIN AVE, CHICAGO IL 60623",41.8654482,-87.7180739,"1224 S LAWNDALE AVE, CHICAGO, IL, 60623",Bing,FALSE,1224 S LAWNDALE AVE,1224,1224,S,LAWNDALE,AVE,60623
11632-38 S FRONT AVE,60628,223089,11632-38 S,FALSE,11632,11638,S,FRONT,AVE,"11632-38 S FRONT AVE, CHICAGO IL 60628",41.68148688,-87.62284124,"11632 S STATE ST, CHICAGO, IL, 60628",Bing,FALSE,11632 S STATE ST,11632,11632,S,STATE,ST,60628
15 E 96TH PL,60628,236919,15 E 96TH PL,FALSE,15,15,E,96TH,PL,"15 E 96TH PL, CHICAGO IL 60628",41.7097332,-87.6228843,"15 E 101ST PL, CHICAGO, IL, 60628",Bing,FALSE,15 E 101ST PL,15,15,E,101ST,PL,60628
8422-1/2 S AVENUE O,60617,355096,8422 S AVENUE O,FALSE,8422,8422,S,AVENUE O,,"8422 S AVENUE O, CHICAGO IL 60617",41.7419037,-87.573205,"8422 S SOUTH CHICAGO AVE, CHICAGO, IL, 60617",Bing,FALSE,8422 S SOUTH CHICAGO AVE,8422,8422,S,SOUTH CHICAGO,AVE,60617
8228-1/2 S AVENUE O,60617,355097,8228 S AVENUE O,FALSE,8228,8228,S,AVENUE O,,"8228 S AVENUE O, CHICAGO IL 60617",41.745226,-87.580684,"8228 S ANTHONY AVE, CHICAGO, IL, 60617",Bing,FALSE,8228 S ANTHONY AVE,8228,8228,S,ANTHONY,AVE,60617
8000-1/2 S AVENUE O,60617,355098,8000 S AVENUE O,FALSE,8000,8000,S,AVENUE O,,"8000 S AVENUE O, CHICAGO IL 60617",41.7496957,-87.5725769,"8000 S MERRILL AVE, CHICAGO, IL, 60617",Bing,FALSE,8000 S MERRILL AVE,8000,8000,S,MERRILL,AVE,60617
7918-1/2 S AVENUE O,60617,355099,7918 S AVENUE O,FALSE,7918,7918,S,AVENUE O,,"7918 S AVENUE O, CHICAGO IL 60617",41.751185,-87.564084,"7918 S ESSEX AVE, CHICAGO, IL, 60617",Bing,FALSE,7918 S ESSEX AVE,7918,7918,S,ESSEX,AVE,60617
470-1/2 N STREETER DR,60611,355218,470 N STREETER DR,FALSE,470,470,N,STREETER,DR,"470 N STREETER DR, CHICAGO IL 60611",41.89054985,-87.61965629,"470 N PARK DR, CHICAGO, IL, 60611",Bing,FALSE,470 N PARK DR,470,470,N,PARK,DR,60611
5655 S FILLMORE AVE,60644,405277,5655 S FILLMORE AVE,FALSE,5655,5655,S,FILLMORE,AVE,"5655 S FILLMORE AVE, CHICAGO IL 60644",41.791268,-87.61694,"5655 S CALUMET AVE, CHICAGO, IL, 60637",Bing,FALSE,5655 S CALUMET AVE,5655,5655,S,CALUMET,AVE,60637
4133 W KENMORE AVE,60646,405941,4133 W KENMORE AVE,FALSE,4133,4133,W,KENMORE,AVE,"4133 W KENMORE AVE, CHICAGO IL 60646",41.99002897,-87.7328109,"4133 W PETERSON AVE, CHICAGO, IL, 60646",Bing,FALSE,4133 W PETERSON AVE,4133,4133,W,PETERSON,AVE,60646
5625 W LARCOM AVE,60646,420443,5625 W LARCOM AVE,FALSE,5625,5625,W,LARCOM,AVE,"5625 W LARCOM AVE, CHICAGO IL 60646",41.9971687,-87.75919,"5625 W DEVON AVE, CHICAGO, IL, 60646",Bing,FALSE,5625 W DEVON AVE,5625,5625,W,DEVON,AVE,60646
5625 W LARCOM AVE,60646,422809,5625 W LARCOM AVE,FALSE,5625,5625,W,LARCOM,AVE,"5625 W LARCOM AVE, CHICAGO IL 60646",41.9971687,-87.75919,"5625 W DEVON AVE, CHICAGO, IL, 60646",Bing,FALSE,5625 W DEVON AVE,5625,5625,W,DEVON,AVE,60646
5801 N RIVER RD,60656,422820,5801 N RIVER RD,FALSE,5801,5801,N,RIVER,RD,"5801 N RIVER RD, CHICAGO IL 60656",41.98726664,-87.84636552,"5801 N EAST RIVER RD, CHICAGO, IL, 60631",Bing,FALSE,5801 N EAST RIVER RD,5801,5801,N,EAST RIVER,RD,60631
5801 N RIVER RD,60656,422821,5801 N RIVER RD,FALSE,5801,5801,N,RIVER,RD,"5801 N RIVER RD, CHICAGO IL 60656",41.98726664,-87.84636552,"5801 N EAST RIVER RD, CHICAGO, IL, 60631",Bing,FALSE,5801 N EAST RIVER RD,5801,5801,N,EAST RIVER,RD,60631
8420 S CIRCULAR DR,60620,424275,8420 S CIRCULAR DR,FALSE,8420,8420,S,CIRCULAR,DR,"8420 S CIRCULAR DR, CHICAGO IL 60620",41.7411851,-87.61472448,"8420 S KING DR, CHICAGO, IL, 60619",Bing,FALSE,8420 S KING DR,8420,8420,S,KING,DR,60619
11524-26 S FRONT AVE,60628,424313,11524-26 S,FALSE,11524,11526,S,FRONT,AVE,"11524-26 S, CHICAGO IL 60628 FRONT AVE",41.6845278,-87.6255877,"11524 S PERRY AVE, CHICAGO, IL, 60628",Bing,FALSE,11524 S PERRY AVE,11524,11524,S,PERRY,AVE,60628
7950-1/2 S AVENUE O,60617,425251,7950 S AVENUE O,FALSE,7950,7950,S,AVENUE O,,"7950 S AVENUE O, CHICAGO IL 60617",41.750563,-87.564062,"7950 S ESSEX AVE, CHICAGO, IL, 60617",Bing,FALSE,7950 S ESSEX AVE,7950,7950,S,ESSEX,AVE,60617
45 E RIVERWALK,60601,432727,45 E RIVERWALK,FALSE,45,45,E,RIVERWALK,,"45 E RIVERWALK, CHICAGO IL 60601",41.88575495,-87.62610046,"45 E LAKE ST, CHICAGO, IL, 60601",Bing,FALSE,45 E LAKE ST,45,45,E,LAKE,ST,60601
425 E RIVERWALK,60601,432960,425 E RIVERWALK,FALSE,425,425,E,RIVERWALK,,"425 E RIVERWALK, CHICAGO IL 60601",41.88770455,-87.6141659,"E WACKER DR & CHICAGO RIVERWALK, CHICAGO, IL, 60601",Bing,TRUE,E WACKER DR & CHICAGO RIVERWALK,,,E,WACKER DR & CHICAGO RIVERWALK,,60601
5247 S KOLIN AVE,60632,455899,5247 S KOLIN AVE,FALSE,5247,5247,S,KOLIN,AVE,"5247 S KOLIN AVE, CHICAGO IL 60632",41.7974076,-87.7156413,"5247 S LAWNDALE AVE, CHICAGO, IL, 60632",Bing,FALSE,5247 S LAWNDALE AVE,5247,5247,S,LAWNDALE,AVE,60632
5625 W LARCOM AVE,60646,459805,5625 W LARCOM AVE,FALSE,5625,5625,W,LARCOM,AVE,"5625 W LARCOM AVE, CHICAGO IL 60646",41.9971687,-87.75919,"5625 W DEVON AVE, CHICAGO, IL, 60646",Bing,FALSE,5625 W DEVON AVE,5625,5625,W,DEVON,AVE,60646
5625 W LARCOM AVE,60646,459806,5625 W LARCOM AVE,FALSE,5625,5625,W,LARCOM,AVE,"5625 W LARCOM AVE, CHICAGO IL 60646",41.9971687,-87.75919,"5625 W DEVON AVE, CHICAGO, IL, 60646",Bing,FALSE,5625 W DEVON AVE,5625,5625,W,DEVON,AVE,60646
5801 N RIVER RD,60656,459820,5801 N RIVER RD,FALSE,5801,5801,N,RIVER,RD,"5801 N RIVER RD, CHICAGO IL 60656",41.98726664,-87.84636552,"5801 N EAST RIVER RD, CHICAGO, IL, 60631",Bing,FALSE,5801 N EAST RIVER RD,5801,5801,N,EAST RIVER,RD,60631
