street_address,zip,row,cleaned_address,is_intersection,stnum1,stnum2,stdir,stname,sttype,full_address,lat,long,matched_address,geocoder,m_is_intersection,m_street,m_stnum1,m_stnum2,m_stdir,m_stname,m_sttype,m_zip
55 E CARVER PLZ,60653,27626,55 E CARVER PLZ,FALSE,55,55,E,CARVER,PLZ,"55 E CARVER PLZ, CHICAGO IL 60653",41.826997,-87.624287,"55 E CARVER PLAZA, CHICAGO, IL, 60653",Bing,FALSE,55 E CARVER PLAZA,55,55,E,CARVER PLAZA,,60653
57 E CARVER PLZ,60653,27627,57 E CARVER PLZ,FALSE,57,57,E,CARVER,PLZ,"57 E CARVER PLZ, CHICAGO IL 60653",41.826997,-87.624275,"57 E CARVER PLAZA, CHICAGO, IL, 60653",Bing,FALSE,57 E CARVER PLAZA,57,57,E,CARVER PLAZA,,60653
71 E CARVER PLZ,60653,27628,71 E CARVER PLZ,FALSE,71,71,E,CARVER,PLZ,"71 E CARVER PLZ, CHICAGO IL 60653",41.826996,-87.624189,"71 E CARVER PLAZA, CHICAGO, IL, 60653",Bing,FALSE,71 E CARVER PLAZA,71,71,E,CARVER PLAZA,,60653
73 E CARVER PLZ,60653,27629,73 E CARVER PLZ,FALSE,73,73,E,CARVER,PLZ,"73 E CARVER PLZ, CHICAGO IL 60653",41.826996,-87.624177,"73 E CARVER PLAZA, CHICAGO, IL, 60653",Bing,FALSE,73 E CARVER PLAZA,73,73,E,CARVER PLAZA,,60653
111 E CARVER PLZ,60653,27630,111 E CARVER PLZ,FALSE,111,111,E,CARVER,PLZ,"111 E CARVER PLZ, CHICAGO IL 60653",41.826993,-87.623945,"111 E CARVER PLAZA, CHICAGO, IL, 60653",Bing,FALSE,111 E CARVER PLAZA,111,111,E,CARVER PLAZA,,60653
1260 W WESTGATE TER,60607,27988,1260 W WESTGATE TER,FALSE,1260,1260,W,WESTGATE,TER,"1260 W WESTGATE TER, CHICAGO IL 60607",41.8739938,-87.6591547,"1260 W WESTGATE TERRACE, CHICAGO, IL, 60607",Bing,FALSE,1260 W WESTGATE TERRACE,1260,1260,W,WESTGATE TERRACE,,60607
1262 W WESTGATE TER,60607,27989,1262 W WESTGATE TER,FALSE,1262,1262,W,WESTGATE,TER,"1262 W WESTGATE TER, CHICAGO IL 60607",41.8738126,-87.6592817,"1262 W WESTGATE TERRACE, CHICAGO, IL, 60607",Bing,FALSE,1262 W WESTGATE TERRACE,1262,1262,W,WESTGATE TERRACE,,60607
1264 W WESTGATE TER,60607,27990,1264 W WESTGATE TER,FALSE,1264,1264,W,WESTGATE,TER,"1264 W WESTGATE TER, CHICAGO IL 60607",41.8738122,-87.6593521,"1264 W WESTGATE TERRACE, CHICAGO, IL, 60607",Bing,FALSE,1264 W WESTGATE TERRACE,1264,1264,W,WESTGATE TERRACE,,60607
1271 W WESTGATE TER,60607,27991,1271 W WESTGATE TER,FALSE,1271,1271,W,WESTGATE,TER,"1271 W WESTGATE TER, CHICAGO IL 60607",41.8733803,-87.6590886,"1271 W WESTGATE TERRACE, CHICAGO, IL, 60607",Bing,FALSE,1271 W WESTGATE TERRACE,1271,1271,W,WESTGATE TERRACE,,60607
1309 W WESTGATE TER,60607,27992,1309 W WESTGATE TER,FALSE,1309,1309,W,WESTGATE,TER,"1309 W WESTGATE TER, CHICAGO IL 60607",41.8736033,-87.6598157,"1309 W WESTGATE TERRACE, CHICAGO, IL, 60607",Bing,FALSE,1309 W WESTGATE TERRACE,1309,1309,W,WESTGATE TERRACE,,60607
1302 W WESTGATE TER,60607,27993,1302 W WESTGATE TER,FALSE,1302,1302,W,WESTGATE,TER,"1302 W WESTGATE TER, CHICAGO IL 60607",41.8740091,-87.6596261,"1302 W WESTGATE TERRACE, CHICAGO, IL, 60607",Bing,FALSE,1302 W WESTGATE TERRACE,1302,1302,W,WESTGATE TERRACE,,60607
1306 W WESTGATE TER,60607,27994,1306 W WESTGATE TER,FALSE,1306,1306,W,WESTGATE,TER,"1306 W WESTGATE TER, CHICAGO IL 60607",41.8740313,-87.6596969,"1306 W WESTGATE TERRACE, CHICAGO, IL, 60607",Bing,FALSE,1306 W WESTGATE TERRACE,1306,1306,W,WESTGATE TERRACE,,60607
1316 W WESTGATE TER,60607,27995,1316 W WESTGATE TER,FALSE,1316,1316,W,WESTGATE,TER,"1316 W WESTGATE TER, CHICAGO IL 60607",41.8739477,-87.6601028,"1316 W WESTGATE TERRACE, CHICAGO, IL, 60607",Bing,FALSE,1316 W WESTGATE TERRACE,1316,1316,W,WESTGATE TERRACE,,60607
1318 W WESTGATE TER,60607,27996,1318 W WESTGATE TER,FALSE,1318,1318,W,WESTGATE,TER,"1318 W WESTGATE TER, CHICAGO IL 60607",41.8740036,-87.6601047,"1318 W WESTGATE TERRACE, CHICAGO, IL, 60607",Bing,FALSE,1318 W WESTGATE TERRACE,1318,1318,W,WESTGATE TERRACE,,60607
1320 W WESTGATE TER,60607,27997,1320 W WESTGATE TER,FALSE,1320,1320,W,WESTGATE,TER,"1320 W WESTGATE TER, CHICAGO IL 60607",41.8740579,-87.6601089,"1320 W WESTGATE TERRACE, CHICAGO, IL, 60607",Bing,FALSE,1320 W WESTGATE TERRACE,1320,1320,W,WESTGATE TERRACE,,60607
1327 N SANDBURG TER,60610,29569,1327 N SANDBURG TER,FALSE,1327,1327,N,SANDBURG,TER,"1327 N SANDBURG TER, CHICAGO IL 60610",41.9064958,-87.6318629,"1327 N SANDBURG TERRACE, CHICAGO, IL, 60610",Bing,FALSE,1327 N SANDBURG TERRACE,1327,1327,N,SANDBURG TERRACE,,60610
1329 N SANDBURG TER,60610,44448,1329 N SANDBURG TER,FALSE,1329,1329,N,SANDBURG,TER,"1329 N SANDBURG TER, CHICAGO IL 60610",41.9065882,-87.6318751,"1329 N SANDBURG TERRACE, CHICAGO, IL, 60610",Bing,FALSE,1329 N SANDBURG TERRACE,1329,1329,N,SANDBURG TERRACE,,60610
1331 N SANDBURG TER,60610,44449,1331 N SANDBURG TER,FALSE,1331,1331,N,SANDBURG,TER,"1331 N SANDBURG TER, CHICAGO IL 60610",41.9066465,-87.631877,"1331 N SANDBURG TERRACE, CHICAGO, IL, 60610",Bing,FALSE,1331 N SANDBURG TERRACE,1331,1331,N,SANDBURG TERRACE,,60610
1333 N SANDBURG TER,60610,44450,1333 N SANDBURG TER,FALSE,1333,1333,N,SANDBURG,TER,"1333 N SANDBURG TER, CHICAGO IL 60610",41.9067041,-87.631879,"1333 N SANDBURG TERRACE, CHICAGO, IL, 60610",Bing,FALSE,1333 N SANDBURG TERRACE,1333,1333,N,SANDBURG TERRACE,,60610
1335 N SANDBURG TER,60610,44451,1335 N SANDBURG TER,FALSE,1335,1335,N,SANDBURG,TER,"1335 N SANDBURG TER, CHICAGO IL 60610",41.9067614,-87.6318803,"1335 N SANDBURG TERRACE, CHICAGO, IL, 60610",Bing,FALSE,1335 N SANDBURG TERRACE,1335,1335,N,SANDBURG TERRACE,,60610
51 E CARVER PLZ,60653,68318,51 E CARVER PLZ,FALSE,51,51,E,CARVER,PLZ,"51 E CARVER PLZ, CHICAGO IL 60653",41.826997,-87.624311,"51 E CARVER PLAZA, CHICAGO, IL, 60653",Bing,FALSE,51 E CARVER PLAZA,51,51,E,CARVER PLAZA,,60653
59 E CARVER PLZ,60653,68319,59 E CARVER PLZ,FALSE,59,59,E,CARVER,PLZ,"59 E CARVER PLZ, CHICAGO IL 60653",41.826997,-87.624263,"59 E CARVER PLAZA, CHICAGO, IL, 60653",Bing,FALSE,59 E CARVER PLAZA,59,59,E,CARVER PLAZA,,60653
67 E CARVER PLZ,60653,68320,67 E CARVER PLZ,FALSE,67,67,E,CARVER,PLZ,"67 E CARVER PLZ, CHICAGO IL 60653",41.826996,-87.624214,"67 E CARVER PLAZA, CHICAGO, IL, 60653",Bing,FALSE,67 E CARVER PLAZA,67,67,E,CARVER PLAZA,,60653
69 E CARVER PLZ,60653,68321,69 E CARVER PLZ,FALSE,69,69,E,CARVER,PLZ,"69 E CARVER PLZ, CHICAGO IL 60653",41.826996,-87.624202,"69 E CARVER PLAZA, CHICAGO, IL, 60653",Bing,FALSE,69 E CARVER PLAZA,69,69,E,CARVER PLAZA,,60653
75 E CARVER PLZ,60653,68322,75 E CARVER PLZ,FALSE,75,75,E,CARVER,PLZ,"75 E CARVER PLZ, CHICAGO IL 60653",41.826996,-87.624165,"75 E CARVER PLAZA, CHICAGO, IL, 60653",Bing,FALSE,75 E CARVER PLAZA,75,75,E,CARVER PLAZA,,60653
107 E CARVER PLZ,60653,68323,107 E CARVER PLZ,FALSE,107,107,E,CARVER,PLZ,"107 E CARVER PLZ, CHICAGO IL 60653",41.826994,-87.62397,"107 E CARVER PLAZA, CHICAGO, IL, 60653",Bing,FALSE,107 E CARVER PLAZA,107,107,E,CARVER PLAZA,,60653
109 E CARVER PLZ,60653,68324,109 E CARVER PLZ,FALSE,109,109,E,CARVER,PLZ,"109 E CARVER PLZ, CHICAGO IL 60653",41.826993,-87.623957,"109 E CARVER PLAZA, CHICAGO, IL, 60653",Bing,FALSE,109 E CARVER PLAZA,109,109,E,CARVER PLAZA,,60653
113 E CARVER PLZ,60653,68325,113 E CARVER PLZ,FALSE,113,113,E,CARVER,PLZ,"113 E CARVER PLZ, CHICAGO IL 60653",41.826993,-87.623933,"113 E CARVER PLAZA, CHICAGO, IL, 60653",Bing,FALSE,113 E CARVER PLAZA,113,113,E,CARVER PLAZA,,60653
1256 W WESTGATE TER,60607,68784,1256 W WESTGATE TER,FALSE,1256,1256,W,WESTGATE,TER,"1256 W WESTGATE TER, CHICAGO IL 60607",41.8740187,-87.6589289,"1256 W WESTGATE TERRACE, CHICAGO, IL, 60607",Bing,FALSE,1256 W WESTGATE TERRACE,1256,1256,W,WESTGATE TERRACE,,60607
1268 W WESTGATE TER,60607,68785,1268 W WESTGATE TER,FALSE,1268,1268,W,WESTGATE,TER,"1268 W WESTGATE TER, CHICAGO IL 60607",41.873822,-87.659523,"1268 W WESTGATE TERRACE, CHICAGO, IL, 60607",Bing,FALSE,1268 W WESTGATE TERRACE,1268,1268,W,WESTGATE TERRACE,,60607
1277 W WESTGATE TER,60607,68786,1277 W WESTGATE TER,FALSE,1277,1277,W,WESTGATE,TER,"1277 W WESTGATE TER, CHICAGO IL 60607",41.8733821,-87.6592927,"1277 W WESTGATE TERRACE, CHICAGO, IL, 60607",Bing,FALSE,1277 W WESTGATE TERRACE,1277,1277,W,WESTGATE TERRACE,,60607
1246 W WESTGATE TER,60607,68787,1246 W WESTGATE TER,FALSE,1246,1246,W,WESTGATE,TER,"1246 W WESTGATE TER, CHICAGO IL 60607",41.8739321,-87.6585715,"1246 W WESTGATE TERRACE, CHICAGO, IL, 60607",Bing,FALSE,1246 W WESTGATE TERRACE,1246,1246,W,WESTGATE TERRACE,,60607
1308 W WESTGATE TER,60607,68788,1308 W WESTGATE TER,FALSE,1308,1308,W,WESTGATE,TER,"1308 W WESTGATE TER, CHICAGO IL 60607",41.8740076,-87.6598485,"1308 W WESTGATE TERRACE, CHICAGO, IL, 60607",Bing,FALSE,1308 W WESTGATE TERRACE,1308,1308,W,WESTGATE TERRACE,,60607
1251-65 W WESTGATE TER,60607,111243,1251-65 W WESTGATE TER,FALSE,1251,1265,W,WESTGATE,TER,"1251-65 W WESTGATE TER, CHICAGO IL 60607",41.8734741,-87.6589965,"1251 W WESTGATE TERRACE, CHICAGO, IL, 60607",Bing,FALSE,1251 W WESTGATE TERRACE,1251,1251,W,WESTGATE TERRACE,,60607
115 E CARVER PLZ,60653,133622,115 E CARVER PLZ,FALSE,115,115,E,CARVER,PLZ,"115 E CARVER PLZ, CHICAGO IL 60653",41.826993,-87.623921,"115 E CARVER PLAZA, CHICAGO, IL, 60653",Bing,FALSE,115 E CARVER PLAZA,115,115,E,CARVER PLAZA,,60653
1303 W WESTGATE TER,60607,138805,1303 W WESTGATE TER,FALSE,1303,1303,W,WESTGATE,TER,"1303 W WESTGATE TER, CHICAGO IL 60607",41.8733861,-87.6595891,"1303 W WESTGATE TERRACE, CHICAGO, IL, 60607",Bing,FALSE,1303 W WESTGATE TERRACE,1303,1303,W,WESTGATE TERRACE,,60607
1455-60 N SANDBURG TER,60610,146419,1455-60 N SANDBURG TER,FALSE,1455,1460,N,SANDBURG,TER,"1455-60 N SANDBURG TER, CHICAGO IL 60610",41.908848,-87.631939,"1455 N SANDBURG TERRACE, CHICAGO, IL, 60610",Bing,FALSE,1455 N SANDBURG TERRACE,1455,1455,N,SANDBURG TERRACE,,60610
1253 W WESTGATE TER,60607,216880,1253 W WESTGATE TER,FALSE,1253,1253,W,WESTGATE,TER,"1253 W WESTGATE TER, CHICAGO IL 60607",41.873613,-87.659073,"1253 W WESTGATE TERRACE, CHICAGO, IL, 60607",Bing,FALSE,1253 W WESTGATE TERRACE,1253,1253,W,WESTGATE TERRACE,,60607
1257-59 W WESTGATE TER,60607,260120,1257-59 W WESTGATE TER,FALSE,1257,1259,W,WESTGATE,TER,"1257-59 W WESTGATE TER, CHICAGO IL 60607",41.8737182,-87.6589965,"1257 W WESTGATE TERRACE, CHICAGO, IL, 60607",Bing,FALSE,1257 W WESTGATE TERRACE,1257,1257,W,WESTGATE TERRACE,,60607
1301 W WESTGATE TER,60607,260121,1301 W WESTGATE TER,FALSE,1301,1301,W,WESTGATE,TER,"1301 W WESTGATE TER, CHICAGO IL 60607",41.8733247,-87.6595868,"1301 W WESTGATE TERRACE, CHICAGO, IL, 60607",Bing,FALSE,1301 W WESTGATE TERRACE,1301,1301,W,WESTGATE TERRACE,,60607
1305 W WESTGATE TER,60607,264353,1305 W WESTGATE TER,FALSE,1305,1305,W,WESTGATE,TER,"1305 W WESTGATE TER, CHICAGO IL 60607",41.8734496,-87.6595918,"1305 W WESTGATE TERRACE, CHICAGO, IL, 60607",Bing,FALSE,1305 W WESTGATE TERRACE,1305,1305,W,WESTGATE TERRACE,,60607
1307 W WESTGATE TER,60607,264354,1307 W WESTGATE TER,FALSE,1307,1307,W,WESTGATE,TER,"1307 W WESTGATE TER, CHICAGO IL 60607",41.8735093,-87.6595943,"1307 W WESTGATE TERRACE, CHICAGO, IL, 60607",Bing,FALSE,1307 W WESTGATE TERRACE,1307,1307,W,WESTGATE TERRACE,,60607
77 E CARVER PLZ,60653,269995,77 E CARVER PLZ,FALSE,77,77,E,CARVER,PLZ,"77 E CARVER PLZ, CHICAGO IL 60653",41.826996,-87.624153,"77 E CARVER PLAZA, CHICAGO, IL, 60653",Bing,FALSE,77 E CARVER PLAZA,77,77,E,CARVER PLAZA,,60653
1312 W WESTGATE TER,60607,270767,1312 W WESTGATE TER,FALSE,1312,1312,W,WESTGATE,TER,"1312 W WESTGATE TER, CHICAGO IL 60607",41.8738419,-87.6600987,"1312 W WESTGATE TERRACE, CHICAGO, IL, 60607",Bing,FALSE,1312 W WESTGATE TERRACE,1312,1312,W,WESTGATE TERRACE,,60607
65 E CARVER PLZ,60653,286585,65 E CARVER PLZ,FALSE,65,65,E,CARVER,PLZ,"65 E CARVER PLZ, CHICAGO IL 60653",41.826996,-87.624226,"65 E CARVER PLAZA, CHICAGO, IL, 60653",Bing,FALSE,65 E CARVER PLAZA,65,65,E,CARVER PLAZA,,60653
1250 W WESTGATE TER,60607,287190,1250 W WESTGATE TER,FALSE,1250,1250,W,WESTGATE,TER,"1250 W WESTGATE TER, CHICAGO IL 60607",41.8739998,-87.6587828,"1250 W WESTGATE TERRACE, CHICAGO, IL, 60607",Bing,FALSE,1250 W WESTGATE TERRACE,1250,1250,W,WESTGATE TERRACE,,60607
1254 W WESTGATE TER,60607,287191,1254 W WESTGATE TER,FALSE,1254,1254,W,WESTGATE,TER,"1254 W WESTGATE TER, CHICAGO IL 60607",41.8740182,-87.6588527,"1254 W WESTGATE TERRACE, CHICAGO, IL, 60607",Bing,FALSE,1254 W WESTGATE TERRACE,1254,1254,W,WESTGATE TERRACE,,60607
1266 W WESTGATE TER,60607,287192,1266 W WESTGATE TER,FALSE,1266,1266,W,WESTGATE,TER,"1266 W WESTGATE TER, CHICAGO IL 60607",41.8738094,-87.6595015,"1266 W WESTGATE TERRACE, CHICAGO, IL, 60607",Bing,FALSE,1266 W WESTGATE TERRACE,1266,1266,W,WESTGATE TERRACE,,60607
1267 W WESTGATE TER,60607,287193,1267 W WESTGATE TER,FALSE,1267,1267,W,WESTGATE,TER,"1267 W WESTGATE TER, CHICAGO IL 60607",41.8733864,-87.6589209,"1267 W WESTGATE TERRACE, CHICAGO, IL, 60607",Bing,FALSE,1267 W WESTGATE TERRACE,1267,1267,W,WESTGATE TERRACE,,60607
1269 W WESTGATE TER,60607,287194,1269 W WESTGATE TER,FALSE,1269,1269,W,WESTGATE,TER,"1269 W WESTGATE TER, CHICAGO IL 60607",41.8733912,-87.6590046,"1269 W WESTGATE TERRACE, CHICAGO, IL, 60607",Bing,FALSE,1269 W WESTGATE TERRACE,1269,1269,W,WESTGATE TERRACE,,60607
1273 W WESTGATE TER,60607,287195,1273 W WESTGATE TER,FALSE,1273,1273,W,WESTGATE,TER,"1273 W WESTGATE TER, CHICAGO IL 60607",41.8733919,-87.6591615,"1273 W WESTGATE TERRACE, CHICAGO, IL, 60607",Bing,FALSE,1273 W WESTGATE TERRACE,1273,1273,W,WESTGATE TERRACE,,60607
1275 W WESTGATE TER,60607,287196,1275 W WESTGATE TER,FALSE,1275,1275,W,WESTGATE,TER,"1275 W WESTGATE TER, CHICAGO IL 60607",41.8733788,-87.6592327,"1275 W WESTGATE TERRACE, CHICAGO, IL, 60607",Bing,FALSE,1275 W WESTGATE TERRACE,1275,1275,W,WESTGATE TERRACE,,60607
1311 W WESTGATE TER,60607,287197,1311 W WESTGATE TER,FALSE,1311,1311,W,WESTGATE,TER,"1311 W WESTGATE TER, CHICAGO IL 60607",41.8736126,-87.6599007,"1311 W WESTGATE TERRACE, CHICAGO, IL, 60607",Bing,FALSE,1311 W WESTGATE TERRACE,1311,1311,W,WESTGATE TERRACE,,60607
1313 W WESTGATE TER,60607,287198,1313 W WESTGATE TER,FALSE,1313,1313,W,WESTGATE,TER,"1313 W WESTGATE TER, CHICAGO IL 60607",41.873598200000004,-87.6599672,"1313 W WESTGATE TERRACE, CHICAGO, IL, 60607",Bing,FALSE,1313 W WESTGATE TERRACE,1313,1313,W,WESTGATE TERRACE,,60607
1317 W WESTGATE TER,60607,287199,1317 W WESTGATE TER,FALSE,1317,1317,W,WESTGATE,TER,"1317 W WESTGATE TER, CHICAGO IL 60607",41.873601,-87.6600989,"1317 W WESTGATE TERRACE, CHICAGO, IL, 60607",Bing,FALSE,1317 W WESTGATE TERRACE,1317,1317,W,WESTGATE TERRACE,,60607
1243 W WESTGATE TER,60607,287200,1243 W WESTGATE TER,FALSE,1243,1243,W,WESTGATE,TER,"1243 W WESTGATE TER, CHICAGO IL 60607",41.8733436,-87.6586506,"1243 W WESTGATE TERRACE, CHICAGO, IL, 60607",Bing,FALSE,1243 W WESTGATE TERRACE,1243,1243,W,WESTGATE TERRACE,,60607
1247 W WESTGATE TER,60607,287201,1247 W WESTGATE TER,FALSE,1247,1247,W,WESTGATE,TER,"1247 W WESTGATE TER, CHICAGO IL 60607",41.8734581,-87.6586537,"1247 W WESTGATE TERRACE, CHICAGO, IL, 60607",Bing,FALSE,1247 W WESTGATE TERRACE,1247,1247,W,WESTGATE TERRACE,,60607
1244 W WESTGATE TER,60607,287202,1244 W WESTGATE TER,FALSE,1244,1244,W,WESTGATE,TER,"1244 W WESTGATE TER, CHICAGO IL 60607",41.8738741,-87.6585715,"1244 W WESTGATE TERRACE, CHICAGO, IL, 60607",Bing,FALSE,1244 W WESTGATE TERRACE,1244,1244,W,WESTGATE TERRACE,,60607
1248 W WESTGATE TER,60607,287203,1248 W WESTGATE TER,FALSE,1248,1248,W,WESTGATE,TER,"1248 W WESTGATE TER, CHICAGO IL 60607",41.8739812,-87.658579,"1248 W WESTGATE TERRACE, CHICAGO, IL, 60607",Bing,FALSE,1248 W WESTGATE TERRACE,1248,1248,W,WESTGATE TERRACE,,60607
1314 W WESTGATE TER,60607,287204,1314 W WESTGATE TER,FALSE,1314,1314,W,WESTGATE,TER,"1314 W WESTGATE TER, CHICAGO IL 60607",41.8738958,-87.6601009,"1314 W WESTGATE TERRACE, CHICAGO, IL, 60607",Bing,FALSE,1314 W WESTGATE TERRACE,1314,1314,W,WESTGATE TERRACE,,60607
49 E CARVER PLZ,60653,316057,49 E CARVER PLZ,FALSE,49,49,E,CARVER,PLZ,"49 E CARVER PLZ, CHICAGO IL 60653",41.826997,-87.624324,"49 E CARVER PLAZA, CHICAGO, IL, 60653",Bing,FALSE,49 E CARVER PLAZA,49,49,E,CARVER PLAZA,,60653
53 E CARVER PLZ,60653,316058,53 E CARVER PLZ,FALSE,53,53,E,CARVER,PLZ,"53 E CARVER PLZ, CHICAGO IL 60653",41.826997,-87.624299,"53 E CARVER PLAZA, CHICAGO, IL, 60653",Bing,FALSE,53 E CARVER PLAZA,53,53,E,CARVER PLAZA,,60653
1258 W WESTGATE TER,60607,316397,1258 W WESTGATE TER,FALSE,1258,1258,W,WESTGATE,TER,"1258 W WESTGATE TER, CHICAGO IL 60607",41.874015,-87.6590085,"1258 W WESTGATE TERRACE, CHICAGO, IL, 60607",Bing,FALSE,1258 W WESTGATE TERRACE,1258,1258,W,WESTGATE TERRACE,,60607
1315 W WESTGATE TER,60607,316398,1315 W WESTGATE TER,FALSE,1315,1315,W,WESTGATE,TER,"1315 W WESTGATE TER, CHICAGO IL 60607",41.8736079,-87.6599607,"1315 W WESTGATE TERRACE, CHICAGO, IL, 60607",Bing,FALSE,1315 W WESTGATE TERRACE,1315,1315,W,WESTGATE TERRACE,,60607
1319 W WESTGATE TER,60607,316399,1319 W WESTGATE TER,FALSE,1319,1319,W,WESTGATE,TER,"1319 W WESTGATE TER, CHICAGO IL 60607",41.8735992,-87.6601703,"1319 W WESTGATE TERRACE, CHICAGO, IL, 60607",Bing,FALSE,1319 W WESTGATE TERRACE,1319,1319,W,WESTGATE TERRACE,,60607
1245 W WESTGATE TER,60607,316400,1245 W WESTGATE TER,FALSE,1245,1245,W,WESTGATE,TER,"1245 W WESTGATE TER, CHICAGO IL 60607",41.8734015,-87.6586597,"1245 W WESTGATE TERRACE, CHICAGO, IL, 60607",Bing,FALSE,1245 W WESTGATE TERRACE,1245,1245,W,WESTGATE TERRACE,,60607
1304 W WESTGATE TER,60607,316401,1304 W WESTGATE TER,FALSE,1304,1304,W,WESTGATE,TER,"1304 W WESTGATE TER, CHICAGO IL 60607",41.8740326,-87.6596174,"1304 W WESTGATE TERRACE, CHICAGO, IL, 60607",Bing,FALSE,1304 W WESTGATE TERRACE,1304,1304,W,WESTGATE TERRACE,,60607
1310 W WESTGATE TER,60607,316402,1310 W WESTGATE TER,FALSE,1310,1310,W,WESTGATE,TER,"1310 W WESTGATE TER, CHICAGO IL 60607",41.8737865,-87.6600962,"1310 W WESTGATE TERRACE, CHICAGO, IL, 60607",Bing,FALSE,1310 W WESTGATE TERRACE,1310,1310,W,WESTGATE TERRACE,,60607
1249 W WESTGATE TER,60607,316403,1249 W WESTGATE TER,FALSE,1249,1249,W,WESTGATE,TER,"1249 W WESTGATE TER, CHICAGO IL 60607",41.8735065,-87.6586607,"1249 W WESTGATE TERRACE, CHICAGO, IL, 60607",Bing,FALSE,1249 W WESTGATE TERRACE,1249,1249,W,WESTGATE TERRACE,,60607
105 E CARVER PLZ,60653,327982,105 E CARVER PLZ,FALSE,105,105,E,CARVER,PLZ,"105 E CARVER PLZ, CHICAGO IL 60653",41.826994,-87.623982,"105 E CARVER PLAZA, CHICAGO, IL, 60653",Bing,FALSE,105 E CARVER PLAZA,105,105,E,CARVER PLAZA,,60653
1255-61 W WESTGATE TER,60607,328446,1255-61 W WESTGATE TER,FALSE,1255,1261,W,WESTGATE,TER,"1255-61 W WESTGATE TER, CHICAGO IL 60607",41.8736857,-87.6590078,"1255 W WESTGATE TERRACE, CHICAGO, IL, 60607",Bing,FALSE,1255 W WESTGATE TERRACE,1255,1255,W,WESTGATE TERRACE,,60607
61 E CARVER PLZ,60653,334337,61 E CARVER PLZ,FALSE,61,61,E,CARVER,PLZ,"61 E CARVER PLZ, CHICAGO IL 60653",41.826997,-87.62425,"61 E CARVER PLAZA, CHICAGO, IL, 60653",Bing,FALSE,61 E CARVER PLAZA,61,61,E,CARVER PLAZA,,60653
63 E CARVER PLZ,60653,342554,63 E CARVER PLZ,FALSE,63,63,E,CARVER,PLZ,"63 E CARVER PLZ, CHICAGO IL 60653",41.826996,-87.624238,"63 E CARVER PLAZA, CHICAGO, IL, 60653",Bing,FALSE,63 E CARVER PLAZA,63,63,E,CARVER PLAZA,,60653
47 E CARVER PLZ,60653,357477,47 E CARVER PLZ,FALSE,47,47,E,CARVER,PLZ,"47 E CARVER PLZ, CHICAGO IL 60653",41.826998,-87.624336,"47 E CARVER PLAZA, CHICAGO, IL, 60653",Bing,FALSE,47 E CARVER PLAZA,47,47,E,CARVER PLAZA,,60653
64 E CARVER PLZ,60653,374251,64 E CARVER PLZ,FALSE,64,64,E,CARVER,PLZ,"64 E CARVER PLZ, CHICAGO IL 60653",41.827205,-87.624229,"64 E CARVER PLAZA, CHICAGO, IL, 60653",Bing,FALSE,64 E CARVER PLAZA,64,64,E,CARVER PLAZA,,60653
52 E CARVER PLZ,60653,377616,52 E CARVER PLZ,FALSE,52,52,E,CARVER,PLZ,"52 E CARVER PLZ, CHICAGO IL 60653",41.827206,-87.624303,"52 E CARVER PLAZA, CHICAGO, IL, 60653",Bing,FALSE,52 E CARVER PLAZA,52,52,E,CARVER PLAZA,,60653
58 E CARVER PLZ,60653,377617,58 E CARVER PLZ,FALSE,58,58,E,CARVER,PLZ,"58 E CARVER PLZ, CHICAGO IL 60653",41.827206,-87.624266,"58 E CARVER PLAZA, CHICAGO, IL, 60653",Bing,FALSE,58 E CARVER PLAZA,58,58,E,CARVER PLAZA,,60653
76 E CARVER PLZ,60653,377618,76 E CARVER PLZ,FALSE,76,76,E,CARVER,PLZ,"76 E CARVER PLZ, CHICAGO IL 60653",41.827205,-87.624155,"76 E CARVER PLAZA, CHICAGO, IL, 60653",Bing,FALSE,76 E CARVER PLAZA,76,76,E,CARVER PLAZA,,60653
72 E CARVER PLZ,60653,379923,72 E CARVER PLZ,FALSE,72,72,E,CARVER,PLZ,"72 E CARVER PLZ, CHICAGO IL 60653",41.827205,-87.62418,"72 E CARVER PLAZA, CHICAGO, IL, 60653",Bing,FALSE,72 E CARVER PLAZA,72,72,E,CARVER PLAZA,,60653
106 E CARVER PLZ,60653,395424,106 E CARVER PLZ,FALSE,106,106,E,CARVER,PLZ,"106 E CARVER PLZ, CHICAGO IL 60653",41.827142,-87.622698,"106 E CARVER PLAZA, CHICAGO, IL, 60653",Bing,FALSE,106 E CARVER PLAZA,106,106,E,CARVER PLAZA,,60653
108 E CARVER PLZ,60653,395425,108 E CARVER PLZ,FALSE,108,108,E,CARVER,PLZ,"108 E CARVER PLZ, CHICAGO IL 60653",41.827142,-87.622639,"108 E CARVER PLAZA, CHICAGO, IL, 60653",Bing,FALSE,108 E CARVER PLAZA,108,108,E,CARVER PLAZA,,60653
48 E CARVER PLZ,60653,396511,48 E CARVER PLZ,FALSE,48,48,E,CARVER,PLZ,"48 E CARVER PLZ, CHICAGO IL 60653",41.827207,-87.624328,"48 E CARVER PLAZA, CHICAGO, IL, 60653",Bing,FALSE,48 E CARVER PLAZA,48,48,E,CARVER PLAZA,,60653
50 E CARVER PLZ,60653,396512,50 E CARVER PLZ,FALSE,50,50,E,CARVER,PLZ,"50 E CARVER PLZ, CHICAGO IL 60653",41.827206,-87.624316,"50 E CARVER PLAZA, CHICAGO, IL, 60653",Bing,FALSE,50 E CARVER PLAZA,50,50,E,CARVER PLAZA,,60653
56 E CARVER PLZ,60653,396513,56 E CARVER PLZ,FALSE,56,56,E,CARVER,PLZ,"56 E CARVER PLZ, CHICAGO IL 60653",41.827206,-87.624279,"56 E CARVER PLAZA, CHICAGO, IL, 60653",Bing,FALSE,56 E CARVER PLAZA,56,56,E,CARVER PLAZA,,60653
60 E CARVER PLZ,60653,396514,60 E CARVER PLZ,FALSE,60,60,E,CARVER,PLZ,"60 E CARVER PLZ, CHICAGO IL 60653",41.827206,-87.624254,"60 E CARVER PLAZA, CHICAGO, IL, 60653",Bing,FALSE,60 E CARVER PLAZA,60,60,E,CARVER PLAZA,,60653
66 E CARVER PLZ,60653,396515,66 E CARVER PLZ,FALSE,66,66,E,CARVER,PLZ,"66 E CARVER PLZ, CHICAGO IL 60653",41.827205,-87.624217,"66 E CARVER PLAZA, CHICAGO, IL, 60653",Bing,FALSE,66 E CARVER PLAZA,66,66,E,CARVER PLAZA,,60653
68 E CARVER PLZ,60653,396516,68 E CARVER PLZ,FALSE,68,68,E,CARVER,PLZ,"68 E CARVER PLZ, CHICAGO IL 60653",41.827205,-87.624205,"68 E CARVER PLAZA, CHICAGO, IL, 60653",Bing,FALSE,68 E CARVER PLAZA,68,68,E,CARVER PLAZA,,60653
70 E CARVER PLZ,60653,396517,70 E CARVER PLZ,FALSE,70,70,E,CARVER,PLZ,"70 E CARVER PLZ, CHICAGO IL 60653",41.827205,-87.624192,"70 E CARVER PLAZA, CHICAGO, IL, 60653",Bing,FALSE,70 E CARVER PLAZA,70,70,E,CARVER PLAZA,,60653
54 E CARVER PLZ,60653,399137,54 E CARVER PLZ,FALSE,54,54,E,CARVER,PLZ,"54 E CARVER PLZ, CHICAGO IL 60653",41.827206,-87.624291,"54 E CARVER PLAZA, CHICAGO, IL, 60653",Bing,FALSE,54 E CARVER PLAZA,54,54,E,CARVER PLAZA,,60653
62 E CARVER PLZ,60653,399138,62 E CARVER PLZ,FALSE,62,62,E,CARVER,PLZ,"62 E CARVER PLZ, CHICAGO IL 60653",41.827206,-87.624242,"62 E CARVER PLAZA, CHICAGO, IL, 60653",Bing,FALSE,62 E CARVER PLAZA,62,62,E,CARVER PLAZA,,60653
74 E CARVER PLZ,60653,399139,74 E CARVER PLZ,FALSE,74,74,E,CARVER,PLZ,"74 E CARVER PLZ, CHICAGO IL 60653",41.827205,-87.624168,"74 E CARVER PLAZA, CHICAGO, IL, 60653",Bing,FALSE,74 E CARVER PLAZA,74,74,E,CARVER PLAZA,,60653
114 E CARVER PLZ,60653,400208,114 E CARVER PLZ,FALSE,114,114,E,CARVER,PLZ,"114 E CARVER PLZ, CHICAGO IL 60653",41.827144,-87.622456,"114 E CARVER PLAZA, CHICAGO, IL, 60653",Bing,FALSE,114 E CARVER PLAZA,114,114,E,CARVER PLAZA,,60653
104 E CARVER PLZ,60653,400664,104 E CARVER PLZ,FALSE,104,104,E,CARVER,PLZ,"104 E CARVER PLZ, CHICAGO IL 60653",41.827146,-87.622763,"104 E CARVER PLAZA, CHICAGO, IL, 60653",Bing,FALSE,104 E CARVER PLAZA,104,104,E,CARVER PLAZA,,60653
110 E CARVER PLZ,60653,400665,110 E CARVER PLZ,FALSE,110,110,E,CARVER,PLZ,"110 E CARVER PLZ, CHICAGO IL 60653",41.827143,-87.62258,"110 E CARVER PLAZA, CHICAGO, IL, 60653",Bing,FALSE,110 E CARVER PLAZA,110,110,E,CARVER PLAZA,,60653
112 E CARVER PLZ,60653,400666,112 E CARVER PLZ,FALSE,112,112,E,CARVER,PLZ,"112 E CARVER PLZ, CHICAGO IL 60653",41.827144,-87.622522,"112 E CARVER PLAZA, CHICAGO, IL, 60653",Bing,FALSE,112 E CARVER PLAZA,112,112,E,CARVER PLAZA,,60653
46 E CARVER PLZ,60653,403280,46 E CARVER PLZ,FALSE,46,46,E,CARVER,PLZ,"46 E CARVER PLZ, CHICAGO IL 60653",41.827207,-87.62434,"46 E CARVER PLAZA, CHICAGO, IL, 60653",Bing,FALSE,46 E CARVER PLAZA,46,46,E,CARVER PLAZA,,60653
1455-60 N SANDBURG TER,60610,404533,1455-60 N SANDBURG TER,FALSE,1455,1460,N,SANDBURG,TER,"1455-60 N SANDBURG TER, CHICAGO IL 60610",41.908848,-87.631939,"1455 N SANDBURG TERRACE, CHICAGO, IL, 60610",Bing,FALSE,1455 N SANDBURG TERRACE,1455,1455,N,SANDBURG TERRACE,,60610
1355-60 N SANDBURG TER,60610,421233,1355-60 N SANDBURG TER,FALSE,1355,1360,N,SANDBURG,TER,"1355-60 N SANDBURG TER, CHICAGO IL 60610",41.90706,-87.631903,"1355 N SANDBURG TERRACE, CHICAGO, IL, 60610",Bing,FALSE,1355 N SANDBURG TERRACE,1355,1355,N,SANDBURG TERRACE,,60610
1355-60 N SANDBURG TER,60610,421234,1355-60 N SANDBURG TER,FALSE,1355,1360,N,SANDBURG,TER,"1355-60 N SANDBURG TER, CHICAGO IL 60610",41.90706,-87.631903,"1355 N SANDBURG TERRACE, CHICAGO, IL, 60610",Bing,FALSE,1355 N SANDBURG TERRACE,1355,1355,N,SANDBURG TERRACE,,60610
1255 N SANDBURG TER,60610,421243,1255 N SANDBURG TER,FALSE,1255,1255,N,SANDBURG,TER,"1255 N SANDBURG TER, CHICAGO IL 60610",41.905407,-87.631908,"1255 N SANDBURG TERRACE, CHICAGO, IL, 60610",Bing,FALSE,1255 N SANDBURG TERRACE,1255,1255,N,SANDBURG TERRACE,,60610
1255 N SANDBURG TER,60610,421244,1255 N SANDBURG TER,FALSE,1255,1255,N,SANDBURG,TER,"1255 N SANDBURG TER, CHICAGO IL 60610",41.905407,-87.631908,"1255 N SANDBURG TERRACE, CHICAGO, IL, 60610",Bing,FALSE,1255 N SANDBURG TERRACE,1255,1255,N,SANDBURG TERRACE,,60610
1252 W WESTGATE TER,60607,467676,1252 W WESTGATE TER,FALSE,1252,1252,W,WESTGATE,TER,"1252 W WESTGATE TER, CHICAGO IL 60607",41.8739966,-87.6588572,"1252 W WESTGATE TERRACE, CHICAGO, IL, 60607",Bing,FALSE,1252 W WESTGATE TERRACE,1252,1252,W,WESTGATE TERRACE,,60607
1242 W WESTGATE TER,60607,467677,1242 W WESTGATE TER,FALSE,1242,1242,W,WESTGATE,TER,"1242 W WESTGATE TER, CHICAGO IL 60607",41.8738161,-87.6585687,"1242 W WESTGATE TERRACE, CHICAGO, IL, 60607",Bing,FALSE,1242 W WESTGATE TERRACE,1242,1242,W,WESTGATE TERRACE,,60607
