street_address,zip,row,cleaned_address,is_intersection,stnum1,stnum2,stdir,stname,sttype,full_address,lat,long,matched_address,geocoder,m_is_intersection,m_street,m_stnum1,m_stnum2,m_stdir,m_stname,m_sttype,m_zip
55 E CARVER PLZ,60653,27626,55 E CARVER PLZ,FALSE,55,55,E,CARVER,PLZ,"55 E CARVER PLZ, CHICAGO IL 60653",41.826997,-87.624287,"55 E CARVER PLAZA, CHICAGO, IL, 60653",Bing,FALSE,55 E CARVER PLAZA,55,55,E,CARVER PLAZA,, 60653
57 E CARVER PLZ,60653,27627,57 E CARVER PLZ,FALSE,57,57,E,CARVER,PLZ,"57 E CARVER PLZ, CHICAGO IL 60653",41.826997,-87.624275,"57 E CARVER PLAZA, CHICAGO, IL, 60653",Bing,FALSE,57 E CARVER PLAZA,57,57,E,CARVER PLAZA,, 60653
71 E CARVER PLZ,60653,27628,71 E CARVER PLZ,FALSE,71,71,E,CARVER,PLZ,"71 E CARVER PLZ, CHICAGO IL 60653",41.826996,-87.624189,"71 E CARVER PLAZA, CHICAGO, IL, 60653",Bing,FALSE,71 E CARVER PLAZA,71,71,E,CARVER PLAZA,, 60653
73 E CARVER PLZ,60653,27629,73 E CARVER PLZ,FALSE,73,73,E,CARVER,PLZ,"73 E CARVER PLZ, CHICAGO IL 60653",41.826996,-87.624177,"73 E CARVER PLAZA, CHICAGO, IL, 60653",Bing,FALSE,73 E CARVER PLAZA,73,73,E,CARVER PLAZA,, 60653
111 E CARVER PLZ,60653,27630,111 E CARVER PLZ,FALSE,111,111,E,CARVER,PLZ,"111 E CARVER PLZ, CHICAGO IL 60653",41.826993,-87.623945,"111 E CARVER PLAZA, CHICAGO, IL, 60653",Bing,FALSE,111 E CARVER PLAZA,111,111,E,CARVER PLAZA,, 60653
1260 W WESTGATE TER,60607,27988,1260 W WESTGATE TER,FALSE,1260,1260,W,WESTGATE,TER,"1260 W WESTGATE TER, CHICAGO IL 60607",41.8739938,-87.6591547,"1260 W WESTGATE TERRACE, CHICAGO, IL, 60607",Bing,FALSE,1260 W WESTGATE TERRACE,1260,1260,W,WESTGATE TERRACE,, 60607
1262 W WESTGATE TER,60607,27989,1262 W WESTGATE TER,FALSE,1262,1262,W,WESTGATE,TER,"1262 W WESTGATE TER, CHICAGO IL 60607",41.8738126,-87.6592817,"1262 W WESTGATE TERRACE, CHICAGO, IL, 60607",Bing,FALSE,1262 W WESTGATE TERRACE,1262,1262,W,WESTGATE TERRACE,, 60607
1264 W WESTGATE TER,60607,27990,1264 W WESTGATE TER,FALSE,1264,1264,W,WESTGATE,TER,"1264 W WESTGATE TER, CHICAGO IL 60607",41.8738122,-87.6593521,"1264 W WESTGATE TERRACE, CHICAGO, IL, 60607",Bing,FALSE,1264 W WESTGATE TERRACE,1264,1264,W,WESTGATE TERRACE,, 60607
1271 W WESTGATE TER,60607,27991,1271 W WESTGATE TER,FALSE,1271,1271,W,WESTGATE,TER,"1271 W WESTGATE TER, CHICAGO IL 60607",41.8733803,-87.6590886,"1271 W WESTGATE TERRACE, CHICAGO, IL, 60607",Bing,FALSE,1271 W WESTGATE TERRACE,1271,1271,W,WESTGATE TERRACE,, 60607
1309 W WESTGATE TER,60607,27992,1309 W WESTGATE TER,FALSE,1309,1309,W,WESTGATE,TER,"1309 W WESTGATE TER, CHICAGO IL 60607",41.8736033,-87.6598157,"1309 W WESTGATE TERRACE, CHICAGO, IL, 60607",Bing,FALSE,1309 W WESTGATE TERRACE,1309,1309,W,WESTGATE TERRACE,, 60607
1302 W WESTGATE TER,60607,27993,1302 W WESTGATE TER,FALSE,1302,1302,W,WESTGATE,TER,"1302 W WESTGATE TER, CHICAGO IL 60607",41.8740091,-87.6596261,"1302 W WESTGATE TERRACE, CHICAGO, IL, 60607",Bing,FALSE,1302 W WESTGATE TERRACE,1302,1302,W,WESTGATE TERRACE,, 60607
1306 W WESTGATE TER,60607,27994,1306 W WESTGATE TER,FALSE,1306,1306,W,WESTGATE,TER,"1306 W WESTGATE TER, CHICAGO IL 60607",41.8740313,-87.6596969,"1306 W WESTGATE TERRACE, CHICAGO, IL, 60607",Bing,FALSE,1306 W WESTGATE TERRACE,1306,1306,W,WESTGATE TERRACE,, 60607
1316 W WESTGATE TER,60607,27995,1316 W WESTGATE TER,FALSE,1316,1316,W,WESTGATE,TER,"1316 W WESTGATE TER, CHICAGO IL 60607",41.8739477,-87.6601028,"1316 W WESTGATE TERRACE, CHICAGO, IL, 60607",Bing,FALSE,1316 W WESTGATE TERRACE,1316,1316,W,WESTGATE TERRACE,, 60607
1318 W WESTGATE TER,60607,27996,1318 W WESTGATE TER,FALSE,1318,1318,W,WESTGATE,TER,"1318 W WESTGATE TER, CHICAGO IL 60607",41.8740036,-87.6601047,"1318 W WESTGATE TERRACE, CHICAGO, IL, 60607",Bing,FALSE,1318 W WESTGATE TERRACE,1318,1318,W,WESTGATE TERRACE,, 60607
1320 W WESTGATE TER,60607,27997,1320 W WESTGATE TER,FALSE,1320,1320,W,WESTGATE,TER,"1320 W WESTGATE TER, CHICAGO IL 60607",41.8740579,-87.6601089,"1320 W WESTGATE TERRACE, CHICAGO, IL, 60607",Bing,FALSE,1320 W WESTGATE TERRACE,1320,1320,W,WESTGATE TERRACE,, 60607
1327 N SANDBURG TER,60610,29569,1327 N SANDBURG TER,FALSE,1327,1327,N,SANDBURG,TER,"1327 N SANDBURG TER, CHICAGO IL 60610",41.9064958,-87.6318629,"1327 N SANDBURG TERRACE, CHICAGO, IL, 60610",Bing,FALSE,1327 N SANDBURG TERRACE,1327,1327,N,SANDBURG TERRACE,, 60610
1329 N SANDBURG TER,60610,44448,1329 N SANDBURG TER,FALSE,1329,1329,N,SANDBURG,TER,"1329 N SANDBURG TER, CHICAGO IL 60610",41.9065882,-87.6318751,"1329 N SANDBURG TERRACE, CHICAGO, IL, 60610",Bing,FALSE,1329 N SANDBURG TERRACE,1329,1329,N,SANDBURG TERRACE,, 60610
1331 N SANDBURG TER,60610,44449,1331 N SANDBURG TER,FALSE,1331,1331,N,SANDBURG,TER,"1331 N SANDBURG TER, CHICAGO IL 60610",41.9066465,-87.631877,"1331 N SANDBURG TERRACE, CHICAGO, IL, 60610",Bing,FALSE,1331 N SANDBURG TERRACE,1331,1331,N,SANDBURG TERRACE,, 60610
1333 N SANDBURG TER,60610,44450,1333 N SANDBURG TER,FALSE,1333,1333,N,SANDBURG,TER,"1333 N SANDBURG TER, CHICAGO IL 60610",41.9067041,-87.631879,"1333 N SANDBURG TERRACE, CHICAGO, IL, 60610",Bing,FALSE,1333 N SANDBURG TERRACE,1333,1333,N,SANDBURG TERRACE,, 60610
1335 N SANDBURG TER,60610,44451,1335 N SANDBURG TER,FALSE,1335,1335,N,SANDBURG,TER,"1335 N SANDBURG TER, CHICAGO IL 60610",41.9067614,-87.6318803,"1335 N SANDBURG TERRACE, CHICAGO, IL, 60610",Bing,FALSE,1335 N SANDBURG TERRACE,1335,1335,N,SANDBURG TERRACE,, 60610
51 E CARVER PLZ,60653,68318,51 E CARVER PLZ,FALSE,51,51,E,CARVER,PLZ,"51 E CARVER PLZ, CHICAGO IL 60653",41.826997,-87.624311,"51 E CARVER PLAZA, CHICAGO, IL, 60653",Bing,FALSE,51 E CARVER PLAZA,51,51,E,CARVER PLAZA,, 60653
59 E CARVER PLZ,60653,68319,59 E CARVER PLZ,FALSE,59,59,E,CARVER,PLZ,"59 E CARVER PLZ, CHICAGO IL 60653",41.826997,-87.624263,"59 E CARVER PLAZA, CHICAGO, IL, 60653",Bing,FALSE,59 E CARVER PLAZA,59,59,E,CARVER PLAZA,, 60653
67 E CARVER PLZ,60653,68320,67 E CARVER PLZ,FALSE,67,67,E,CARVER,PLZ,"67 E CARVER PLZ, CHICAGO IL 60653",41.826996,-87.624214,"67 E CARVER PLAZA, CHICAGO, IL, 60653",Bing,FALSE,67 E CARVER PLAZA,67,67,E,CARVER PLAZA,, 60653
69 E CARVER PLZ,60653,68321,69 E CARVER PLZ,FALSE,69,69,E,CARVER,PLZ,"69 E CARVER PLZ, CHICAGO IL 60653",41.826996,-87.624202,"69 E CARVER PLAZA, CHICAGO, IL, 60653",Bing,FALSE,69 E CARVER PLAZA,69,69,E,CARVER PLAZA,, 60653
75 E CARVER PLZ,60653,68322,75 E CARVER PLZ,FALSE,75,75,E,CARVER,PLZ,"75 E CARVER PLZ, CHICAGO IL 60653",41.826996,-87.624165,"75 E CARVER PLAZA, CHICAGO, IL, 60653",Bing,FALSE,75 E CARVER PLAZA,75,75,E,CARVER PLAZA,, 60653
107 E CARVER PLZ,60653,68323,107 E CARVER PLZ,FALSE,107,107,E,CARVER,PLZ,"107 E CARVER PLZ, CHICAGO IL 60653",41.826994,-87.62397,"107 E CARVER PLAZA, CHICAGO, IL, 60653",Bing,FALSE,107 E CARVER PLAZA,107,107,E,CARVER PLAZA,, 60653
109 E CARVER PLZ,60653,68324,109 E CARVER PLZ,FALSE,109,109,E,CARVER,PLZ,"109 E CARVER PLZ, CHICAGO IL 60653",41.826993,-87.623957,"109 E CARVER PLAZA, CHICAGO, IL, 60653",Bing,FALSE,109 E CARVER PLAZA,109,109,E,CARVER PLAZA,, 60653
113 E CARVER PLZ,60653,68325,113 E CARVER PLZ,FALSE,113,113,E,CARVER,PLZ,"113 E CARVER PLZ, CHICAGO IL 60653",41.826993,-87.623933,"113 E CARVER PLAZA, CHICAGO, IL, 60653",Bing,FALSE,113 E CARVER PLAZA,113,113,E,CARVER PLAZA,, 60653
1256 W WESTGATE TER,60607,68784,1256 W WESTGATE TER,FALSE,1256,1256,W,WESTGATE,TER,"1256 W WESTGATE TER, CHICAGO IL 60607",41.8740187,-87.6589289,"1256 W WESTGATE TERRACE, CHICAGO, IL, 60607",Bing,FALSE,1256 W WESTGATE TERRACE,1256,1256,W,WESTGATE TERRACE,, 60607
1268 W WESTGATE TER,60607,68785,1268 W WESTGATE TER,FALSE,1268,1268,W,WESTGATE,TER,"1268 W WESTGATE TER, CHICAGO IL 60607",41.873822,-87.659523,"1268 W WESTGATE TERRACE, CHICAGO, IL, 60607",Bing,FALSE,1268 W WESTGATE TERRACE,1268,1268,W,WESTGATE TERRACE,, 60607
1277 W WESTGATE TER,60607,68786,1277 W WESTGATE TER,FALSE,1277,1277,W,WESTGATE,TER,"1277 W WESTGATE TER, CHICAGO IL 60607",41.8733821,-87.6592927,"1277 W WESTGATE TERRACE, CHICAGO, IL, 60607",Bing,FALSE,1277 W WESTGATE TERRACE,1277,1277,W,WESTGATE TERRACE,, 60607
1246 W WESTGATE TER,60607,68787,1246 W WESTGATE TER,FALSE,1246,1246,W,WESTGATE,TER,"1246 W WESTGATE TER, CHICAGO IL 60607",41.8739321,-87.6585715,"1246 W WESTGATE TERRACE, CHICAGO, IL, 60607",Bing,FALSE,1246 W WESTGATE TERRACE,1246,1246,W,WESTGATE TERRACE,, 60607
1308 W WESTGATE TER,60607,68788,1308 W WESTGATE TER,FALSE,1308,1308,W,WESTGATE,TER,"1308 W WESTGATE TER, CHICAGO IL 60607",41.8740076,-87.6598485,"1308 W WESTGATE TERRACE, CHICAGO, IL, 60607",Bing,FALSE,1308 W WESTGATE TERRACE,1308,1308,W,WESTGATE TERRACE,, 60607
1251-65 W WESTGATE TER,60607,111243,1251-65 W WESTGATE TER,FALSE,1251,1265,W,WESTGATE,TER,"1251-65 W WESTGATE TER, CHICAGO IL 60607",41.8734741,-87.6589965,"1251 W WESTGATE TERRACE, CHICAGO, IL, 60607",Bing,FALSE,1251 W WESTGATE TERRACE,1251,1251,W,WESTGATE TERRACE,, 60607
11700 S FRONT AVE,60628,112036,11700 S,FALSE,11700,11700,,S,,"11700 S, CHICAGO IL 60628",41.6817417,-87.6388336,"11700 S LOWE AVE, CHICAGO, IL, 60628",Bing,FALSE,11700 S LOWE AVE,11700,11700,S,LOWE,AVE, 60628
4331 SW W SOUTHWEST HWY,60456,130451,4331 SW W SOUTHWEST HWY,FALSE,4331,4331,SW,W SOUTHWEST,HWY,"4331 SW W SOUTHWEST HWY, CHICAGO IL 60456",41.728558,-87.729976,"4331 SOUTHWEST HWY, HOMETOWN, IL, 60456",Bing,FALSE,4331 SOUTHWEST HWY,4331,4331,,SOUTHWEST,HWY, 60456
115 E CARVER PLZ,60653,133622,115 E CARVER PLZ,FALSE,115,115,E,CARVER,PLZ,"115 E CARVER PLZ, CHICAGO IL 60653",41.826993,-87.623921,"115 E CARVER PLAZA, CHICAGO, IL, 60653",Bing,FALSE,115 E CARVER PLAZA,115,115,E,CARVER PLAZA,, 60653
1303 W WESTGATE TER,60607,138805,1303 W WESTGATE TER,FALSE,1303,1303,W,WESTGATE,TER,"1303 W WESTGATE TER, CHICAGO IL 60607",41.8733861,-87.6595891,"1303 W WESTGATE TERRACE, CHICAGO, IL, 60607",Bing,FALSE,1303 W WESTGATE TERRACE,1303,1303,W,WESTGATE TERRACE,, 60607
1455-60 N SANDBURG TER,60610,146419,1455-60 N SANDBURG TER,FALSE,1455,1460,N,SANDBURG,TER,"1455-60 N SANDBURG TER, CHICAGO IL 60610",41.908848,-87.631939,"1455 N SANDBURG TERRACE, CHICAGO, IL, 60610",Bing,FALSE,1455 N SANDBURG TERRACE,1455,1455,N,SANDBURG TERRACE,, 60610
11728-42 S FRONT AVE,60628,153989,11728-42 S,FALSE,11728,11742,,S,,"11728-42 S, CHICAGO IL 60628",41.680721,-87.625506,"11728 S PERRY AVE, CHICAGO, IL, 60628",Bing,FALSE,11728 S PERRY AVE,11728,11728,S,PERRY,AVE, 60628
11328-32 S FRONT AVE,60628,155128,11328-32 S,FALSE,11328,11332,,S,,"11328-32 S, CHICAGO IL 60628",41.68812538,-87.62575909,"11328 S PERRY AVE, CHICAGO, IL, 60628",Bing,FALSE,11328 S PERRY AVE,11328,11328,S,PERRY,AVE, 60628
11572 S FRONT AVE,60628,179822,11572 S,FALSE,11572,11572,,S,,"11572 S, CHICAGO IL 60628",41.683155,-87.625597,"11572 S PERRY AVE, CHICAGO, IL, 60628",Bing,FALSE,11572 S PERRY AVE,11572,11572,S,PERRY,AVE, 60628
1224 S KOLIN AVE,60623,187817,1224 S KOLIN AVE,FALSE,1224,1224,S,KOLIN,AVE,"1224 S KOLIN AVE, CHICAGO IL 60623",41.8654482,-87.7180739,"1224 S LAWNDALE AVE, CHICAGO, IL, 60623",Bing,FALSE,1224 S LAWNDALE AVE,1224,1224,S,LAWNDALE,AVE, 60623
4917 N ST LOUIS AVE,60625,194572,4917 N ST LOUIS AVE,FALSE,4917,4917,N,ST LOUIS,AVE,"4917 N ST LOUIS AVE, CHICAGO IL 60625",41.9707384,-87.7155569,"4917 N SAINT LOUIS AVE, CHICAGO, IL, 60625",Bing,FALSE,4917 N SAINT LOUIS AVE,4917,4917,N,SAINT LOUIS,AVE, 60625
1253 W WESTGATE TER,60607,216880,1253 W WESTGATE TER,FALSE,1253,1253,W,WESTGATE,TER,"1253 W WESTGATE TER, CHICAGO IL 60607",41.873613,-87.659073,"1253 W WESTGATE TERRACE, CHICAGO, IL, 60607",Bing,FALSE,1253 W WESTGATE TERRACE,1253,1253,W,WESTGATE TERRACE,, 60607
11632-38 S FRONT AVE,60628,223089,11632-38 S,FALSE,11632,11638,,S,,"11632-38 S, CHICAGO IL 60628",41.68148688,-87.62284124,"11632 S STATE ST, CHICAGO, IL, 60628",Bing,FALSE,11632 S STATE ST,11632,11632,S,STATE,ST, 60628
3101 W PALMER ST,60647,227807,3101 W PALMER ST,FALSE,3101,3101,W,PALMER,ST,"3101 W PALMER ST, CHICAGO IL 60647",41.9203924,-87.7054765,"3101 W PALMER SQR, CHICAGO, IL, 60647",Bing,FALSE,3101 W PALMER SQR,3101,3101,W,PALMER SQR,, 60647
711 W O'BRIEN ST,60607,236192,711 W O'BRIEN ST,FALSE,711,711,W,O'BRIEN,ST,"711 W O'BRIEN ST, CHICAGO IL 60607",41.8659058,-87.6456299,"711 W O BRIEN ST, CHICAGO, IL, 60607",Bing,FALSE,711 W O BRIEN ST,711,711,W,O BRIEN,ST, 60607
721 W O'BRIEN ST,60607,236243,721 W O'BRIEN ST,FALSE,721,721,W,O'BRIEN,ST,"721 W O'BRIEN ST, CHICAGO IL 60607",41.8659671,-87.64601184,"721 W O BRIEN ST, CHICAGO, IL, 60607",Bing,FALSE,721 W O BRIEN ST,721,721,W,O BRIEN,ST, 60607
15 E 96TH PL,60628,236919,15 E 96TH PL,FALSE,15,15,E,96TH,PL,"15 E 96TH PL, CHICAGO IL 60628",41.7097332,-87.6228843,"15 E 101ST PL, CHICAGO, IL, 60628",Bing,FALSE,15 E 101ST PL,15,15,E,101ST,PL, 60628
1257-59 W WESTGATE TER,60607,260120,1257-59 W WESTGATE TER,FALSE,1257,1259,W,WESTGATE,TER,"1257-59 W WESTGATE TER, CHICAGO IL 60607",41.8737182,-87.6589965,"1257 W WESTGATE TERRACE, CHICAGO, IL, 60607",Bing,FALSE,1257 W WESTGATE TERRACE,1257,1257,W,WESTGATE TERRACE,, 60607
1301 W WESTGATE TER,60607,260121,1301 W WESTGATE TER,FALSE,1301,1301,W,WESTGATE,TER,"1301 W WESTGATE TER, CHICAGO IL 60607",41.8733247,-87.6595868,"1301 W WESTGATE TERRACE, CHICAGO, IL, 60607",Bing,FALSE,1301 W WESTGATE TERRACE,1301,1301,W,WESTGATE TERRACE,, 60607
1305 W WESTGATE TER,60607,264353,1305 W WESTGATE TER,FALSE,1305,1305,W,WESTGATE,TER,"1305 W WESTGATE TER, CHICAGO IL 60607",41.8734496,-87.6595918,"1305 W WESTGATE TERRACE, CHICAGO, IL, 60607",Bing,FALSE,1305 W WESTGATE TERRACE,1305,1305,W,WESTGATE TERRACE,, 60607
1307 W WESTGATE TER,60607,264354,1307 W WESTGATE TER,FALSE,1307,1307,W,WESTGATE,TER,"1307 W WESTGATE TER, CHICAGO IL 60607",41.8735093,-87.6595943,"1307 W WESTGATE TERRACE, CHICAGO, IL, 60607",Bing,FALSE,1307 W WESTGATE TERRACE,1307,1307,W,WESTGATE TERRACE,, 60607
77 E CARVER PLZ,60653,269995,77 E CARVER PLZ,FALSE,77,77,E,CARVER,PLZ,"77 E CARVER PLZ, CHICAGO IL 60653",41.826996,-87.624153,"77 E CARVER PLAZA, CHICAGO, IL, 60653",Bing,FALSE,77 E CARVER PLAZA,77,77,E,CARVER PLAZA,, 60653
1312 W WESTGATE TER,60607,270767,1312 W WESTGATE TER,FALSE,1312,1312,W,WESTGATE,TER,"1312 W WESTGATE TER, CHICAGO IL 60607",41.8738419,-87.6600987,"1312 W WESTGATE TERRACE, CHICAGO, IL, 60607",Bing,FALSE,1312 W WESTGATE TERRACE,1312,1312,W,WESTGATE TERRACE,, 60607
65 E CARVER PLZ,60653,286585,65 E CARVER PLZ,FALSE,65,65,E,CARVER,PLZ,"65 E CARVER PLZ, CHICAGO IL 60653",41.826996,-87.624226,"65 E CARVER PLAZA, CHICAGO, IL, 60653",Bing,FALSE,65 E CARVER PLAZA,65,65,E,CARVER PLAZA,, 60653
1250 W WESTGATE TER,60607,287190,1250 W WESTGATE TER,FALSE,1250,1250,W,WESTGATE,TER,"1250 W WESTGATE TER, CHICAGO IL 60607",41.8739998,-87.6587828,"1250 W WESTGATE TERRACE, CHICAGO, IL, 60607",Bing,FALSE,1250 W WESTGATE TERRACE,1250,1250,W,WESTGATE TERRACE,, 60607
1254 W WESTGATE TER,60607,287191,1254 W WESTGATE TER,FALSE,1254,1254,W,WESTGATE,TER,"1254 W WESTGATE TER, CHICAGO IL 60607",41.8740182,-87.6588527,"1254 W WESTGATE TERRACE, CHICAGO, IL, 60607",Bing,FALSE,1254 W WESTGATE TERRACE,1254,1254,W,WESTGATE TERRACE,, 60607
1266 W WESTGATE TER,60607,287192,1266 W WESTGATE TER,FALSE,1266,1266,W,WESTGATE,TER,"1266 W WESTGATE TER, CHICAGO IL 60607",41.8738094,-87.6595015,"1266 W WESTGATE TERRACE, CHICAGO, IL, 60607",Bing,FALSE,1266 W WESTGATE TERRACE,1266,1266,W,WESTGATE TERRACE,, 60607
1267 W WESTGATE TER,60607,287193,1267 W WESTGATE TER,FALSE,1267,1267,W,WESTGATE,TER,"1267 W WESTGATE TER, CHICAGO IL 60607",41.8733864,-87.6589209,"1267 W WESTGATE TERRACE, CHICAGO, IL, 60607",Bing,FALSE,1267 W WESTGATE TERRACE,1267,1267,W,WESTGATE TERRACE,, 60607
1269 W WESTGATE TER,60607,287194,1269 W WESTGATE TER,FALSE,1269,1269,W,WESTGATE,TER,"1269 W WESTGATE TER, CHICAGO IL 60607",41.8733912,-87.6590046,"1269 W WESTGATE TERRACE, CHICAGO, IL, 60607",Bing,FALSE,1269 W WESTGATE TERRACE,1269,1269,W,WESTGATE TERRACE,, 60607
1273 W WESTGATE TER,60607,287195,1273 W WESTGATE TER,FALSE,1273,1273,W,WESTGATE,TER,"1273 W WESTGATE TER, CHICAGO IL 60607",41.8733919,-87.6591615,"1273 W WESTGATE TERRACE, CHICAGO, IL, 60607",Bing,FALSE,1273 W WESTGATE TERRACE,1273,1273,W,WESTGATE TERRACE,, 60607
1275 W WESTGATE TER,60607,287196,1275 W WESTGATE TER,FALSE,1275,1275,W,WESTGATE,TER,"1275 W WESTGATE TER, CHICAGO IL 60607",41.8733788,-87.6592327,"1275 W WESTGATE TERRACE, CHICAGO, IL, 60607",Bing,FALSE,1275 W WESTGATE TERRACE,1275,1275,W,WESTGATE TERRACE,, 60607
1311 W WESTGATE TER,60607,287197,1311 W WESTGATE TER,FALSE,1311,1311,W,WESTGATE,TER,"1311 W WESTGATE TER, CHICAGO IL 60607",41.8736126,-87.6599007,"1311 W WESTGATE TERRACE, CHICAGO, IL, 60607",Bing,FALSE,1311 W WESTGATE TERRACE,1311,1311,W,WESTGATE TERRACE,, 60607
1313 W WESTGATE TER,60607,287198,1313 W WESTGATE TER,FALSE,1313,1313,W,WESTGATE,TER,"1313 W WESTGATE TER, CHICAGO IL 60607",41.873598200000004,-87.6599672,"1313 W WESTGATE TERRACE, CHICAGO, IL, 60607",Bing,FALSE,1313 W WESTGATE TERRACE,1313,1313,W,WESTGATE TERRACE,, 60607
1317 W WESTGATE TER,60607,287199,1317 W WESTGATE TER,FALSE,1317,1317,W,WESTGATE,TER,"1317 W WESTGATE TER, CHICAGO IL 60607",41.873601,-87.6600989,"1317 W WESTGATE TERRACE, CHICAGO, IL, 60607",Bing,FALSE,1317 W WESTGATE TERRACE,1317,1317,W,WESTGATE TERRACE,, 60607
1243 W WESTGATE TER,60607,287200,1243 W WESTGATE TER,FALSE,1243,1243,W,WESTGATE,TER,"1243 W WESTGATE TER, CHICAGO IL 60607",41.8733436,-87.6586506,"1243 W WESTGATE TERRACE, CHICAGO, IL, 60607",Bing,FALSE,1243 W WESTGATE TERRACE,1243,1243,W,WESTGATE TERRACE,, 60607
1247 W WESTGATE TER,60607,287201,1247 W WESTGATE TER,FALSE,1247,1247,W,WESTGATE,TER,"1247 W WESTGATE TER, CHICAGO IL 60607",41.8734581,-87.6586537,"1247 W WESTGATE TERRACE, CHICAGO, IL, 60607",Bing,FALSE,1247 W WESTGATE TERRACE,1247,1247,W,WESTGATE TERRACE,, 60607
1244 W WESTGATE TER,60607,287202,1244 W WESTGATE TER,FALSE,1244,1244,W,WESTGATE,TER,"1244 W WESTGATE TER, CHICAGO IL 60607",41.8738741,-87.6585715,"1244 W WESTGATE TERRACE, CHICAGO, IL, 60607",Bing,FALSE,1244 W WESTGATE TERRACE,1244,1244,W,WESTGATE TERRACE,, 60607
1248 W WESTGATE TER,60607,287203,1248 W WESTGATE TER,FALSE,1248,1248,W,WESTGATE,TER,"1248 W WESTGATE TER, CHICAGO IL 60607",41.8739812,-87.658579,"1248 W WESTGATE TERRACE, CHICAGO, IL, 60607",Bing,FALSE,1248 W WESTGATE TERRACE,1248,1248,W,WESTGATE TERRACE,, 60607
1314 W WESTGATE TER,60607,287204,1314 W WESTGATE TER,FALSE,1314,1314,W,WESTGATE,TER,"1314 W WESTGATE TER, CHICAGO IL 60607",41.8738958,-87.6601009,"1314 W WESTGATE TERRACE, CHICAGO, IL, 60607",Bing,FALSE,1314 W WESTGATE TERRACE,1314,1314,W,WESTGATE TERRACE,, 60607
49 E CARVER PLZ,60653,316057,49 E CARVER PLZ,FALSE,49,49,E,CARVER,PLZ,"49 E CARVER PLZ, CHICAGO IL 60653",41.826997,-87.624324,"49 E CARVER PLAZA, CHICAGO, IL, 60653",Bing,FALSE,49 E CARVER PLAZA,49,49,E,CARVER PLAZA,, 60653
53 E CARVER PLZ,60653,316058,53 E CARVER PLZ,FALSE,53,53,E,CARVER,PLZ,"53 E CARVER PLZ, CHICAGO IL 60653",41.826997,-87.624299,"53 E CARVER PLAZA, CHICAGO, IL, 60653",Bing,FALSE,53 E CARVER PLAZA,53,53,E,CARVER PLAZA,, 60653
1258 W WESTGATE TER,60607,316397,1258 W WESTGATE TER,FALSE,1258,1258,W,WESTGATE,TER,"1258 W WESTGATE TER, CHICAGO IL 60607",41.874015,-87.6590085,"1258 W WESTGATE TERRACE, CHICAGO, IL, 60607",Bing,FALSE,1258 W WESTGATE TERRACE,1258,1258,W,WESTGATE TERRACE,, 60607
1315 W WESTGATE TER,60607,316398,1315 W WESTGATE TER,FALSE,1315,1315,W,WESTGATE,TER,"1315 W WESTGATE TER, CHICAGO IL 60607",41.8736079,-87.6599607,"1315 W WESTGATE TERRACE, CHICAGO, IL, 60607",Bing,FALSE,1315 W WESTGATE TERRACE,1315,1315,W,WESTGATE TERRACE,, 60607
1319 W WESTGATE TER,60607,316399,1319 W WESTGATE TER,FALSE,1319,1319,W,WESTGATE,TER,"1319 W WESTGATE TER, CHICAGO IL 60607",41.8735992,-87.6601703,"1319 W WESTGATE TERRACE, CHICAGO, IL, 60607",Bing,FALSE,1319 W WESTGATE TERRACE,1319,1319,W,WESTGATE TERRACE,, 60607
1245 W WESTGATE TER,60607,316400,1245 W WESTGATE TER,FALSE,1245,1245,W,WESTGATE,TER,"1245 W WESTGATE TER, CHICAGO IL 60607",41.8734015,-87.6586597,"1245 W WESTGATE TERRACE, CHICAGO, IL, 60607",Bing,FALSE,1245 W WESTGATE TERRACE,1245,1245,W,WESTGATE TERRACE,, 60607
1304 W WESTGATE TER,60607,316401,1304 W WESTGATE TER,FALSE,1304,1304,W,WESTGATE,TER,"1304 W WESTGATE TER, CHICAGO IL 60607",41.8740326,-87.6596174,"1304 W WESTGATE TERRACE, CHICAGO, IL, 60607",Bing,FALSE,1304 W WESTGATE TERRACE,1304,1304,W,WESTGATE TERRACE,, 60607
1310 W WESTGATE TER,60607,316402,1310 W WESTGATE TER,FALSE,1310,1310,W,WESTGATE,TER,"1310 W WESTGATE TER, CHICAGO IL 60607",41.8737865,-87.6600962,"1310 W WESTGATE TERRACE, CHICAGO, IL, 60607",Bing,FALSE,1310 W WESTGATE TERRACE,1310,1310,W,WESTGATE TERRACE,, 60607
1249 W WESTGATE TER,60607,316403,1249 W WESTGATE TER,FALSE,1249,1249,W,WESTGATE,TER,"1249 W WESTGATE TER, CHICAGO IL 60607",41.8735065,-87.6586607,"1249 W WESTGATE TERRACE, CHICAGO, IL, 60607",Bing,FALSE,1249 W WESTGATE TERRACE,1249,1249,W,WESTGATE TERRACE,, 60607
3355 W FIFTH AVE,60624,326807,3355 W FIFTH AVE,FALSE,3355,3355,W,FIFTH,AVE,"3355 W FIFTH AVE, CHICAGO IL 60624",41.877265,-87.7104133,"3355 W 5TH AVE, CHICAGO, IL, 60624",Bing,FALSE,3355 W 5TH AVE,3355,3355,W,5TH,AVE, 60624
105 E CARVER PLZ,60653,327982,105 E CARVER PLZ,FALSE,105,105,E,CARVER,PLZ,"105 E CARVER PLZ, CHICAGO IL 60653",41.826994,-87.623982,"105 E CARVER PLAZA, CHICAGO, IL, 60653",Bing,FALSE,105 E CARVER PLAZA,105,105,E,CARVER PLAZA,, 60653
1255-61 W WESTGATE TER,60607,328446,1255-61 W WESTGATE TER,FALSE,1255,1261,W,WESTGATE,TER,"1255-61 W WESTGATE TER, CHICAGO IL 60607",41.8736857,-87.6590078,"1255 W WESTGATE TERRACE, CHICAGO, IL, 60607",Bing,FALSE,1255 W WESTGATE TERRACE,1255,1255,W,WESTGATE TERRACE,, 60607
11592 S FRONT AVE,60628,329467,11592 S,FALSE,11592,11592,,S,,"11592 S, CHICAGO IL 60628",41.68233714,-87.62529773,"11592 S PERRY AVE, CHICAGO, IL, 60628",Bing,FALSE,11592 S PERRY AVE,11592,11592,S,PERRY,AVE, 60628
61 E CARVER PLZ,60653,334337,61 E CARVER PLZ,FALSE,61,61,E,CARVER,PLZ,"61 E CARVER PLZ, CHICAGO IL 60653",41.826997,-87.62425,"61 E CARVER PLAZA, CHICAGO, IL, 60653",Bing,FALSE,61 E CARVER PLAZA,61,61,E,CARVER PLAZA,, 60653
11576 S FRONT AVE,60628,340089,11576 S,FALSE,11576,11576,,S,,"11576 S, CHICAGO IL 60628",41.6831097,-87.6255514,"11576 S PERRY AVE, CHICAGO, IL, 60628",Bing,FALSE,11576 S PERRY AVE,11576,11576,S,PERRY,AVE, 60628
63 E CARVER PLZ,60653,342554,63 E CARVER PLZ,FALSE,63,63,E,CARVER,PLZ,"63 E CARVER PLZ, CHICAGO IL 60653",41.826996,-87.624238,"63 E CARVER PLAZA, CHICAGO, IL, 60653",Bing,FALSE,63 E CARVER PLAZA,63,63,E,CARVER PLAZA,, 60653
738-1/2 W O'BRIEN ST,60607,346876,738 W O'BRIEN ST,FALSE,738,738,W,O'BRIEN,ST,"738 W O'BRIEN ST, CHICAGO IL 60607",41.863665,-87.6464633,"738 W O BRIEN ST, CHICAGO, IL, 60607",Bing,FALSE,738 W O BRIEN ST,738,738,W,O BRIEN,ST, 60607
5025 S ST LOUIS AVE,60632,346960,5025 S ST LOUIS AVE,FALSE,5025,5025,S,ST LOUIS,AVE,"5025 S ST LOUIS AVE, CHICAGO IL 60632",41.801975,-87.710522,"5025 S SAINT LOUIS AVE, CHICAGO, IL, 60632",Bing,FALSE,5025 S SAINT LOUIS AVE,5025,5025,S,SAINT LOUIS,AVE, 60632
11500-700 S STONY IS,60633,347112,11500-700 S STONY IS,FALSE,11500,11700,S,STONY IS,,"11500-700 S STONY IS, CHICAGO IL 60633",41.68639852,-87.57654497,"11500 S STONY ISLAND AVE, CHICAGO, IL, 60617",Bing,FALSE,11500 S STONY ISLAND AVE,11500,11500,S,STONY ISLAND,AVE, 60617
11500-700 S STONY IS,60633,347113,11500-700 S STONY IS,FALSE,11500,11700,S,STONY IS,,"11500-700 S STONY IS, CHICAGO IL 60633",41.68639852,-87.57654497,"11500 S STONY ISLAND AVE, CHICAGO, IL, 60617",Bing,FALSE,11500 S STONY ISLAND AVE,11500,11500,S,STONY ISLAND,AVE, 60617
1220 S MUSEUM  CAMPUS DR,60605,349067,1220 S MUSEUM  CAMPUS DR,FALSE,1220,1220,S,MUSEUM  CAMPUS,DR,"1220 S MUSEUM  CAMPUS DR, CHICAGO IL 60605",41.86471889,-87.61417248,"1220 S MUSEUM CAMPUS DR, CHICAGO, IL, 60605",Bing,FALSE,1220 S MUSEUM CAMPUS DR,1220,1220,S,MUSEUM CAMPUS,DR, 60605
8422-1/2 S AVENUE O,60617,355096,8422 S AVENUE O,FALSE,8422,8422,S,AVENUE O,,"8422 S AVENUE O, CHICAGO IL 60617",41.7419037,-87.573205,"8422 S SOUTH CHICAGO AVE, CHICAGO, IL, 60617",Bing,FALSE,8422 S SOUTH CHICAGO AVE,8422,8422,S,SOUTH CHICAGO,AVE, 60617
8228-1/2 S AVENUE O,60617,355097,8228 S AVENUE O,FALSE,8228,8228,S,AVENUE O,,"8228 S AVENUE O, CHICAGO IL 60617",41.745226,-87.580684,"8228 S ANTHONY AVE, CHICAGO, IL, 60617",Bing,FALSE,8228 S ANTHONY AVE,8228,8228,S,ANTHONY,AVE, 60617
8000-1/2 S AVENUE O,60617,355098,8000 S AVENUE O,FALSE,8000,8000,S,AVENUE O,,"8000 S AVENUE O, CHICAGO IL 60617",41.7496957,-87.5725769,"8000 S MERRILL AVE, CHICAGO, IL, 60617",Bing,FALSE,8000 S MERRILL AVE,8000,8000,S,MERRILL,AVE, 60617
7918-1/2 S AVENUE O,60617,355099,7918 S AVENUE O,FALSE,7918,7918,S,AVENUE O,,"7918 S AVENUE O, CHICAGO IL 60617",41.751185,-87.564084,"7918 S ESSEX AVE, CHICAGO, IL, 60617",Bing,FALSE,7918 S ESSEX AVE,7918,7918,S,ESSEX,AVE, 60617
470-1/2 N STREETER DR,60611,355218,470 N STREETER DR,FALSE,470,470,N,STREETER,DR,"470 N STREETER DR, CHICAGO IL 60611",41.89054985,-87.61965629,"470 N PARK DR, CHICAGO, IL, 60611",Bing,FALSE,470 N PARK DR,470,470,N,PARK,DR, 60611
47 E CARVER PLZ,60653,357477,47 E CARVER PLZ,FALSE,47,47,E,CARVER,PLZ,"47 E CARVER PLZ, CHICAGO IL 60653",41.826998,-87.624336,"47 E CARVER PLAZA, CHICAGO, IL, 60653",Bing,FALSE,47 E CARVER PLAZA,47,47,E,CARVER PLAZA,, 60653
64 E CARVER PLZ,60653,374251,64 E CARVER PLZ,FALSE,64,64,E,CARVER,PLZ,"64 E CARVER PLZ, CHICAGO IL 60653",41.827205,-87.624229,"64 E CARVER PLAZA, CHICAGO, IL, 60653",Bing,FALSE,64 E CARVER PLAZA,64,64,E,CARVER PLAZA,, 60653
52 E CARVER PLZ,60653,377616,52 E CARVER PLZ,FALSE,52,52,E,CARVER,PLZ,"52 E CARVER PLZ, CHICAGO IL 60653",41.827206,-87.624303,"52 E CARVER PLAZA, CHICAGO, IL, 60653",Bing,FALSE,52 E CARVER PLAZA,52,52,E,CARVER PLAZA,, 60653
58 E CARVER PLZ,60653,377617,58 E CARVER PLZ,FALSE,58,58,E,CARVER,PLZ,"58 E CARVER PLZ, CHICAGO IL 60653",41.827206,-87.624266,"58 E CARVER PLAZA, CHICAGO, IL, 60653",Bing,FALSE,58 E CARVER PLAZA,58,58,E,CARVER PLAZA,, 60653
76 E CARVER PLZ,60653,377618,76 E CARVER PLZ,FALSE,76,76,E,CARVER,PLZ,"76 E CARVER PLZ, CHICAGO IL 60653",41.827205,-87.624155,"76 E CARVER PLAZA, CHICAGO, IL, 60653",Bing,FALSE,76 E CARVER PLAZA,76,76,E,CARVER PLAZA,, 60653
72 E CARVER PLZ,60653,379923,72 E CARVER PLZ,FALSE,72,72,E,CARVER,PLZ,"72 E CARVER PLZ, CHICAGO IL 60653",41.827205,-87.62418,"72 E CARVER PLAZA, CHICAGO, IL, 60653",Bing,FALSE,72 E CARVER PLAZA,72,72,E,CARVER PLAZA,, 60653
106 E CARVER PLZ,60653,395424,106 E CARVER PLZ,FALSE,106,106,E,CARVER,PLZ,"106 E CARVER PLZ, CHICAGO IL 60653",41.827142,-87.622698,"106 E CARVER PLAZA, CHICAGO, IL, 60653",Bing,FALSE,106 E CARVER PLAZA,106,106,E,CARVER PLAZA,, 60653
108 E CARVER PLZ,60653,395425,108 E CARVER PLZ,FALSE,108,108,E,CARVER,PLZ,"108 E CARVER PLZ, CHICAGO IL 60653",41.827142,-87.622639,"108 E CARVER PLAZA, CHICAGO, IL, 60653",Bing,FALSE,108 E CARVER PLAZA,108,108,E,CARVER PLAZA,, 60653
48 E CARVER PLZ,60653,396511,48 E CARVER PLZ,FALSE,48,48,E,CARVER,PLZ,"48 E CARVER PLZ, CHICAGO IL 60653",41.827207,-87.624328,"48 E CARVER PLAZA, CHICAGO, IL, 60653",Bing,FALSE,48 E CARVER PLAZA,48,48,E,CARVER PLAZA,, 60653
50 E CARVER PLZ,60653,396512,50 E CARVER PLZ,FALSE,50,50,E,CARVER,PLZ,"50 E CARVER PLZ, CHICAGO IL 60653",41.827206,-87.624316,"50 E CARVER PLAZA, CHICAGO, IL, 60653",Bing,FALSE,50 E CARVER PLAZA,50,50,E,CARVER PLAZA,, 60653
56 E CARVER PLZ,60653,396513,56 E CARVER PLZ,FALSE,56,56,E,CARVER,PLZ,"56 E CARVER PLZ, CHICAGO IL 60653",41.827206,-87.624279,"56 E CARVER PLAZA, CHICAGO, IL, 60653",Bing,FALSE,56 E CARVER PLAZA,56,56,E,CARVER PLAZA,, 60653
60 E CARVER PLZ,60653,396514,60 E CARVER PLZ,FALSE,60,60,E,CARVER,PLZ,"60 E CARVER PLZ, CHICAGO IL 60653",41.827206,-87.624254,"60 E CARVER PLAZA, CHICAGO, IL, 60653",Bing,FALSE,60 E CARVER PLAZA,60,60,E,CARVER PLAZA,, 60653
66 E CARVER PLZ,60653,396515,66 E CARVER PLZ,FALSE,66,66,E,CARVER,PLZ,"66 E CARVER PLZ, CHICAGO IL 60653",41.827205,-87.624217,"66 E CARVER PLAZA, CHICAGO, IL, 60653",Bing,FALSE,66 E CARVER PLAZA,66,66,E,CARVER PLAZA,, 60653
68 E CARVER PLZ,60653,396516,68 E CARVER PLZ,FALSE,68,68,E,CARVER,PLZ,"68 E CARVER PLZ, CHICAGO IL 60653",41.827205,-87.624205,"68 E CARVER PLAZA, CHICAGO, IL, 60653",Bing,FALSE,68 E CARVER PLAZA,68,68,E,CARVER PLAZA,, 60653
70 E CARVER PLZ,60653,396517,70 E CARVER PLZ,FALSE,70,70,E,CARVER,PLZ,"70 E CARVER PLZ, CHICAGO IL 60653",41.827205,-87.624192,"70 E CARVER PLAZA, CHICAGO, IL, 60653",Bing,FALSE,70 E CARVER PLAZA,70,70,E,CARVER PLAZA,, 60653
54 E CARVER PLZ,60653,399137,54 E CARVER PLZ,FALSE,54,54,E,CARVER,PLZ,"54 E CARVER PLZ, CHICAGO IL 60653",41.827206,-87.624291,"54 E CARVER PLAZA, CHICAGO, IL, 60653",Bing,FALSE,54 E CARVER PLAZA,54,54,E,CARVER PLAZA,, 60653
62 E CARVER PLZ,60653,399138,62 E CARVER PLZ,FALSE,62,62,E,CARVER,PLZ,"62 E CARVER PLZ, CHICAGO IL 60653",41.827206,-87.624242,"62 E CARVER PLAZA, CHICAGO, IL, 60653",Bing,FALSE,62 E CARVER PLAZA,62,62,E,CARVER PLAZA,, 60653
74 E CARVER PLZ,60653,399139,74 E CARVER PLZ,FALSE,74,74,E,CARVER,PLZ,"74 E CARVER PLZ, CHICAGO IL 60653",41.827205,-87.624168,"74 E CARVER PLAZA, CHICAGO, IL, 60653",Bing,FALSE,74 E CARVER PLAZA,74,74,E,CARVER PLAZA,, 60653
114 E CARVER PLZ,60653,400208,114 E CARVER PLZ,FALSE,114,114,E,CARVER,PLZ,"114 E CARVER PLZ, CHICAGO IL 60653",41.827144,-87.622456,"114 E CARVER PLAZA, CHICAGO, IL, 60653",Bing,FALSE,114 E CARVER PLAZA,114,114,E,CARVER PLAZA,, 60653
104 E CARVER PLZ,60653,400664,104 E CARVER PLZ,FALSE,104,104,E,CARVER,PLZ,"104 E CARVER PLZ, CHICAGO IL 60653",41.827146,-87.622763,"104 E CARVER PLAZA, CHICAGO, IL, 60653",Bing,FALSE,104 E CARVER PLAZA,104,104,E,CARVER PLAZA,, 60653
110 E CARVER PLZ,60653,400665,110 E CARVER PLZ,FALSE,110,110,E,CARVER,PLZ,"110 E CARVER PLZ, CHICAGO IL 60653",41.827143,-87.62258,"110 E CARVER PLAZA, CHICAGO, IL, 60653",Bing,FALSE,110 E CARVER PLAZA,110,110,E,CARVER PLAZA,, 60653
112 E CARVER PLZ,60653,400666,112 E CARVER PLZ,FALSE,112,112,E,CARVER,PLZ,"112 E CARVER PLZ, CHICAGO IL 60653",41.827144,-87.622522,"112 E CARVER PLAZA, CHICAGO, IL, 60653",Bing,FALSE,112 E CARVER PLAZA,112,112,E,CARVER PLAZA,, 60653
46 E CARVER PLZ,60653,403280,46 E CARVER PLZ,FALSE,46,46,E,CARVER,PLZ,"46 E CARVER PLZ, CHICAGO IL 60653",41.827207,-87.62434,"46 E CARVER PLAZA, CHICAGO, IL, 60653",Bing,FALSE,46 E CARVER PLAZA,46,46,E,CARVER PLAZA,, 60653
1455-60 N SANDBURG TER,60610,404533,1455-60 N SANDBURG TER,FALSE,1455,1460,N,SANDBURG,TER,"1455-60 N SANDBURG TER, CHICAGO IL 60610",41.908848,-87.631939,"1455 N SANDBURG TERRACE, CHICAGO, IL, 60610",Bing,FALSE,1455 N SANDBURG TERRACE,1455,1455,N,SANDBURG TERRACE,, 60610
5655 S FILLMORE AVE,60644,405277,5655 S FILLMORE AVE,FALSE,5655,5655,S,FILLMORE,AVE,"5655 S FILLMORE AVE, CHICAGO IL 60644",41.791268,-87.61694,"5655 S CALUMET AVE, CHICAGO, IL, 60637",Bing,FALSE,5655 S CALUMET AVE,5655,5655,S,CALUMET,AVE, 60637
4133 W KENMORE AVE,60646,405941,4133 W KENMORE AVE,FALSE,4133,4133,W,KENMORE,AVE,"4133 W KENMORE AVE, CHICAGO IL 60646",41.99002897,-87.7328109,"4133 W PETERSON AVE, CHICAGO, IL, 60646",Bing,FALSE,4133 W PETERSON AVE,4133,4133,W,PETERSON,AVE, 60646
3040 W 11TH ST,60655,406137,3040 W 11TH ST,FALSE,3040,3040,W,11TH,ST,"3040 W 11TH ST, CHICAGO IL 60655",41.691863,-87.697533,"3040 W 111TH ST, CHICAGO, IL, 60655",Bing,FALSE,3040 W 111TH ST,3040,3040,W,111TH,ST, 60655
855 N LECARIRE AVE,60651,406225,855 N LECARIRE AVE,FALSE,855,855,N,LECARIRE,AVE,"855 N LECARIRE AVE, CHICAGO IL 60651",41.8966459,-87.7528638,"855 N LECLAIRE AVE, CHICAGO, IL, 60651",Bing,FALSE,855 N LECLAIRE AVE,855,855,N,LECLAIRE,AVE, 60651
10 S RIVERSIDE PLZ,60606,416689,10 S RIVERSIDE PLZ,FALSE,10,10,S,RIVERSIDE,PLZ,"10 S RIVERSIDE PLZ, CHICAGO IL 60606",41.8811798,-87.6391283,"10 S RIVERSIDE PLAZA, CHICAGO, IL, 60606-3706",Bing,FALSE,10 S RIVERSIDE PLAZA,10,10,S,RIVERSIDE PLAZA,, 60606
120 S RIVERSIDE PLZ,60606,416690,120 S RIVERSIDE PLZ,FALSE,120,120,S,RIVERSIDE,PLZ,"120 S RIVERSIDE PLZ, CHICAGO IL 60606",41.879986,-87.639084,"120 S RIVERSIDE PLAZA, CHICAGO, IL, 60606-3907",Bing,FALSE,120 S RIVERSIDE PLAZA,120,120,S,RIVERSIDE PLAZA,, 60606
222 S RIVERSIDE PLZ,60606,416691,222 S RIVERSIDE PLZ,FALSE,222,222,S,RIVERSIDE,PLZ,"222 S RIVERSIDE PLZ, CHICAGO IL 60606",41.8789946,-87.6389292,"222 S RIVERSIDE PLAZA, CHICAGO, IL, 60606-5803",Bing,FALSE,222 S RIVERSIDE PLAZA,222,222,S,RIVERSIDE PLAZA,, 60606
222 S RIVERSIDE PLZ,60606,416692,222 S RIVERSIDE PLZ,FALSE,222,222,S,RIVERSIDE,PLZ,"222 S RIVERSIDE PLZ, CHICAGO IL 60606",41.8789946,-87.6389292,"222 S RIVERSIDE PLAZA, CHICAGO, IL, 60606-5803",Bing,FALSE,222 S RIVERSIDE PLAZA,222,222,S,RIVERSIDE PLAZA,, 60606
300 S RIVERSIDE PLZ,60606,417506,300 S RIVERSIDE PLZ,FALSE,300,300,S,RIVERSIDE,PLZ,"300 S RIVERSIDE PLZ, CHICAGO IL 60606",41.8774473,-87.6385112,"300 S RIVERSIDE PLAZA, CHICAGO, IL, 60606-6611",Bing,FALSE,300 S RIVERSIDE PLAZA,300,300,S,RIVERSIDE PLAZA,, 60606
300 S RIVERSIDE PLZ,60606,417507,300 S RIVERSIDE PLZ,FALSE,300,300,S,RIVERSIDE,PLZ,"300 S RIVERSIDE PLZ, CHICAGO IL 60606",41.8774473,-87.6385112,"300 S RIVERSIDE PLAZA, CHICAGO, IL, 60606-6611",Bing,FALSE,300 S RIVERSIDE PLAZA,300,300,S,RIVERSIDE PLAZA,, 60606
4040 S ST LOUIS AVE,60632,420344,4040 S ST LOUIS AVE,FALSE,4040,4040,S,ST LOUIS,AVE,"4040 S ST LOUIS AVE, CHICAGO IL 60632",41.82451775,-87.71184942,"4040 S SAINT LOUIS AVE, CHICAGO, IL, 60632",Bing,FALSE,4040 S SAINT LOUIS AVE,4040,4040,S,SAINT LOUIS,AVE, 60632
5625 W LARCOM AVE,60646,420443,5625 W LARCOM AVE,FALSE,5625,5625,W,LARCOM,AVE,"5625 W LARCOM AVE, CHICAGO IL 60646",41.9971687,-87.75919,"5625 W DEVON AVE, CHICAGO, IL, 60646",Bing,FALSE,5625 W DEVON AVE,5625,5625,W,DEVON,AVE, 60646
1355-60 N SANDBURG TER,60610,421233,1355-60 N SANDBURG TER,FALSE,1355,1360,N,SANDBURG,TER,"1355-60 N SANDBURG TER, CHICAGO IL 60610",41.90706,-87.631903,"1355 N SANDBURG TERRACE, CHICAGO, IL, 60610",Bing,FALSE,1355 N SANDBURG TERRACE,1355,1355,N,SANDBURG TERRACE,, 60610
1355-60 N SANDBURG TER,60610,421234,1355-60 N SANDBURG TER,FALSE,1355,1360,N,SANDBURG,TER,"1355-60 N SANDBURG TER, CHICAGO IL 60610",41.90706,-87.631903,"1355 N SANDBURG TERRACE, CHICAGO, IL, 60610",Bing,FALSE,1355 N SANDBURG TERRACE,1355,1355,N,SANDBURG TERRACE,, 60610
1255 N SANDBURG TER,60610,421243,1255 N SANDBURG TER,FALSE,1255,1255,N,SANDBURG,TER,"1255 N SANDBURG TER, CHICAGO IL 60610",41.905407,-87.631908,"1255 N SANDBURG TERRACE, CHICAGO, IL, 60610",Bing,FALSE,1255 N SANDBURG TERRACE,1255,1255,N,SANDBURG TERRACE,, 60610
1255 N SANDBURG TER,60610,421244,1255 N SANDBURG TER,FALSE,1255,1255,N,SANDBURG,TER,"1255 N SANDBURG TER, CHICAGO IL 60610",41.905407,-87.631908,"1255 N SANDBURG TERRACE, CHICAGO, IL, 60610",Bing,FALSE,1255 N SANDBURG TERRACE,1255,1255,N,SANDBURG TERRACE,, 60610
5625 W LARCOM AVE,60646,422809,5625 W LARCOM AVE,FALSE,5625,5625,W,LARCOM,AVE,"5625 W LARCOM AVE, CHICAGO IL 60646",41.9971687,-87.75919,"5625 W DEVON AVE, CHICAGO, IL, 60646",Bing,FALSE,5625 W DEVON AVE,5625,5625,W,DEVON,AVE, 60646
5801 N RIVER RD,60656,422820,5801 N RIVER RD,FALSE,5801,5801,N,RIVER,RD,"5801 N RIVER RD, CHICAGO IL 60656",41.98726664,-87.84636552,"5801 N EAST RIVER RD, CHICAGO, IL, 60631",Bing,FALSE,5801 N EAST RIVER RD,5801,5801,N,EAST RIVER,RD, 60631
5801 N RIVER RD,60656,422821,5801 N RIVER RD,FALSE,5801,5801,N,RIVER,RD,"5801 N RIVER RD, CHICAGO IL 60656",41.98726664,-87.84636552,"5801 N EAST RIVER RD, CHICAGO, IL, 60631",Bing,FALSE,5801 N EAST RIVER RD,5801,5801,N,EAST RIVER,RD, 60631
4443 W CHICAGO SOUTH AVE,60651,424217,4443 W CHICAGO SOUTH AVE,FALSE,4443,4443,W,CHICAGO SOUTH,AVE,"4443 W CHICAGO SOUTH AVE, CHICAGO IL 60651",41.89512998,-87.73716969,"4443 W CHICAGO AVE, CHICAGO, IL, 60651",Bing,FALSE,4443 W CHICAGO AVE,4443,4443,W,CHICAGO,AVE, 60651
4443 W CHICAGO SOUTH AVE,60651,424218,4443 W CHICAGO SOUTH AVE,FALSE,4443,4443,W,CHICAGO SOUTH,AVE,"4443 W CHICAGO SOUTH AVE, CHICAGO IL 60651",41.89512998,-87.73716969,"4443 W CHICAGO AVE, CHICAGO, IL, 60651",Bing,FALSE,4443 W CHICAGO AVE,4443,4443,W,CHICAGO,AVE, 60651
234 W POLK (BUILDING A,60605,424229,234 W POLK,FALSE,234,234,W,POLK (BUILDING A,,"234 W POLK, CHICAGO IL 60605",41.87220167,-87.63332057,"234 W POLK ST, CHICAGO, IL, 60605",Bing,FALSE,234 W POLK ST,234,234,W,POLK,ST, 60605
234 W POLK (BUILDING A,60605,424230,234 W POLK,FALSE,234,234,W,POLK (BUILDING A,,"234 W POLK, CHICAGO IL 60605",41.87220167,-87.63332057,"234 W POLK ST, CHICAGO, IL, 60605",Bing,FALSE,234 W POLK ST,234,234,W,POLK,ST, 60605
8420 S CIRCULAR DR,60620,424275,8420 S CIRCULAR DR,FALSE,8420,8420,S,CIRCULAR,DR,"8420 S CIRCULAR DR, CHICAGO IL 60620",41.7411851,-87.61472448,"8420 S KING DR, CHICAGO, IL, 60619",Bing,FALSE,8420 S KING DR,8420,8420,S,KING,DR, 60619
11524-26 S FRONT AVE,60628,424313,11524-26 S,FALSE,11524,11526,,S,,"11524-26 S, CHICAGO IL 60628",41.6845278,-87.6255877,"11524 S PERRY AVE, CHICAGO, IL, 60628",Bing,FALSE,11524 S PERRY AVE,11524,11524,S,PERRY,AVE, 60628
7950-1/2 S AVENUE O,60617,425251,7950 S AVENUE O,FALSE,7950,7950,S,AVENUE O,,"7950 S AVENUE O, CHICAGO IL 60617",41.750563,-87.564062,"7950 S ESSEX AVE, CHICAGO, IL, 60617",Bing,FALSE,7950 S ESSEX AVE,7950,7950,S,ESSEX,AVE, 60617
45 E RIVERWALK,60601,432727,45 E RIVERWALK,FALSE,45,45,E,RIVERWALK,,"45 E RIVERWALK, CHICAGO IL 60601",41.88575495,-87.62610046,"45 E LAKE ST, CHICAGO, IL, 60601",Bing,FALSE,45 E LAKE ST,45,45,E,LAKE,ST, 60601
425 E RIVERWALK,60601,432960,425 E RIVERWALK,FALSE,425,425,E,RIVERWALK,,"425 E RIVERWALK, CHICAGO IL 60601",41.88770455,-87.6141659,"E WACKER DR & CHICAGO RIVERWALK, CHICAGO, IL, 60601",Bing,TRUE,E WACKER DR & CHICAGO RIVERWALK,,,E,WACKER DR & CHICAGO RIVERWALK,, 60601
100 N RIVERSIDE PLZ,60606,434345,100 N RIVERSIDE PLZ,FALSE,100,100,N,RIVERSIDE,PLZ,"100 N RIVERSIDE PLZ, CHICAGO IL 60606",41.8838378,-87.6387805,"100 N RIVERSIDE PLAZA, CHICAGO, IL, 60606-1517",Bing,FALSE,100 N RIVERSIDE PLAZA,100,100,N,RIVERSIDE PLAZA,, 60606
100 N RIVERSIDE PLZ,60606,434346,100 N RIVERSIDE PLZ,FALSE,100,100,N,RIVERSIDE,PLZ,"100 N RIVERSIDE PLZ, CHICAGO IL 60606",41.8838378,-87.6387805,"100 N RIVERSIDE PLAZA, CHICAGO, IL, 60606-1517",Bing,FALSE,100 N RIVERSIDE PLAZA,100,100,N,RIVERSIDE PLAZA,, 60606
5247 S KOLIN AVE,60632,455899,5247 S KOLIN AVE,FALSE,5247,5247,S,KOLIN,AVE,"5247 S KOLIN AVE, CHICAGO IL 60632",41.7974076,-87.7156413,"5247 S LAWNDALE AVE, CHICAGO, IL, 60632",Bing,FALSE,5247 S LAWNDALE AVE,5247,5247,S,LAWNDALE,AVE, 60632
4760 N MILWAUKEE  NORTH DOOR AVE,60630,456313,4760 N MILWAUKEE  NORTH DOOR AVE,FALSE,4760,4760,N,MILWAUKEE  NORTH DOOR,AVE,"4760 N MILWAUKEE  NORTH DOOR AVE, CHICAGO IL 60630",41.966936,-87.760363,"4760 N MILWAUKEE AVE, CHICAGO, IL, 60630",Bing,FALSE,4760 N MILWAUKEE AVE,4760,4760,N,MILWAUKEE,AVE, 60630
5625 W LARCOM AVE,60646,459805,5625 W LARCOM AVE,FALSE,5625,5625,W,LARCOM,AVE,"5625 W LARCOM AVE, CHICAGO IL 60646",41.9971687,-87.75919,"5625 W DEVON AVE, CHICAGO, IL, 60646",Bing,FALSE,5625 W DEVON AVE,5625,5625,W,DEVON,AVE, 60646
5625 W LARCOM AVE,60646,459806,5625 W LARCOM AVE,FALSE,5625,5625,W,LARCOM,AVE,"5625 W LARCOM AVE, CHICAGO IL 60646",41.9971687,-87.75919,"5625 W DEVON AVE, CHICAGO, IL, 60646",Bing,FALSE,5625 W DEVON AVE,5625,5625,W,DEVON,AVE, 60646
5801 N RIVER RD,60656,459820,5801 N RIVER RD,FALSE,5801,5801,N,RIVER,RD,"5801 N RIVER RD, CHICAGO IL 60656",41.98726664,-87.84636552,"5801 N EAST RIVER RD, CHICAGO, IL, 60631",Bing,FALSE,5801 N EAST RIVER RD,5801,5801,N,EAST RIVER,RD, 60631
1252 W WESTGATE TER,60607,467676,1252 W WESTGATE TER,FALSE,1252,1252,W,WESTGATE,TER,"1252 W WESTGATE TER, CHICAGO IL 60607",41.8739966,-87.6588572,"1252 W WESTGATE TERRACE, CHICAGO, IL, 60607",Bing,FALSE,1252 W WESTGATE TERRACE,1252,1252,W,WESTGATE TERRACE,, 60607
1242 W WESTGATE TER,60607,467677,1242 W WESTGATE TER,FALSE,1242,1242,W,WESTGATE,TER,"1242 W WESTGATE TER, CHICAGO IL 60607",41.8738161,-87.6585687,"1242 W WESTGATE TERRACE, CHICAGO, IL, 60607",Bing,FALSE,1242 W WESTGATE TERRACE,1242,1242,W,WESTGATE TERRACE,, 60607
