row,full_address,is_intersection,stnum1,stnum2,stdir,stname,sttype,zip,geocoder,lat,long,geoid,m_is_intersection,m_stnum1,m_stnum2,m_stdir,m_stname,m_zip
130002,"5852 W 51ST ST, CHICAGO IL 60638",FALSE,5852,5852,W,51ST,ST,60638,Census Bureau,41.800002447596,-87.769402935138,17031820800,FALSE,5852,5852,W,51ST, 60638
130401,"5203 W 47TH ST, CHICAGO IL 60638",FALSE,5203,5203,W,47TH,ST,60638,Census Bureau,41.80743686966,-87.753086874769,17031820800,FALSE,5203,5203,W,47TH, 60638
130402,"5330 W 47TH ST, CHICAGO IL 60402",FALSE,5330,5330,W,47TH,ST,60402,Census Bureau,41.807513666608,-87.755778717752,17031820800,FALSE,5330,5330,W,47TH, 60638
130403,"5400 W 47TH ST, CHICAGO IL 60402",FALSE,5400,5400,W,47TH,ST,60402,Census Bureau,41.807487480212,-87.757911380368,17031820800,FALSE,5400,5400,W,47TH, 60638
130404,"5401 W 47TH ST, CHICAGO IL 60402",FALSE,5401,5401,W,47TH,ST,60402,Census Bureau,41.80737290533,-87.757908770049,17031820800,FALSE,5401,5401,W,47TH, 60638
130405,"5401 W 47TH ST, CHICAGO IL 60402",FALSE,5401,5401,W,47TH,ST,60402,Census Bureau,41.80737290533,-87.757908770049,17031820800,FALSE,5401,5401,W,47TH, 60638
130406,"5440 W 47TH ST, CHICAGO IL 60402",FALSE,5440,5440,W,47TH,ST,60402,Census Bureau,41.80747725402,-87.758719253031,17031820800,FALSE,5440,5440,W,47TH, 60638
130407,"5448 W 47TH ST, CHICAGO IL 60402",FALSE,5448,5448,W,47TH,ST,60402,Census Bureau,41.807475208781,-87.758880827564,17031820800,FALSE,5448,5448,W,47TH, 60638
130408,"5500 W 47TH ST, CHICAGO IL 60402",FALSE,5500,5500,W,47TH,ST,60402,Census Bureau,41.807460446336,-87.760044423774,17031820800,FALSE,5500,5500,W,47TH, 60638
130409,"5504 W 47TH ST, CHICAGO IL 60402",FALSE,5504,5504,W,47TH,ST,60402,Census Bureau,41.8074590591,-87.760150374365,17031820800,FALSE,5504,5504,W,47TH, 60638
130410,"6050 W 51ST ST, CHICAGO IL 60638",FALSE,6050,6050,W,51ST,ST,60638,Census Bureau,41.79987640264,-87.774388939591,17031820800,FALSE,6050,6050,W,51ST, 60638
130411,"4901 S AUSTIN AVE, CHICAGO IL 60402",FALSE,4901,4901,S,AUSTIN,AVE,60402,Census Bureau,41.802338468036,-87.77228698285,17031820800,FALSE,4901,4901,S,AUSTIN, 60638
130412,"4924 S AUSTIN AVE, CHICAGO IL 60402",FALSE,4924,4924,S,AUSTIN,AVE,60402,Census Bureau,41.802044682192,-87.772430686346,17031820800,FALSE,4924,4924,S,AUSTIN, 60638
130413,"6000 W 51ST ST, CHICAGO IL 60638",FALSE,6000,6000,W,51ST,ST,60638,Census Bureau,41.799934549755,-87.772358792825,17031820800,FALSE,6000,6000,W,51ST, 60638
130414,"4655 S CENTRAL AVE, CHICAGO IL 60402",FALSE,4655,4655,S,CENTRAL,AVE,60402,Census Bureau,41.808055424973,-87.762655037633,17031820800,FALSE,4655,4655,S,CENTRAL, 60638
130416,"3633 W 116TH PL, CHICAGO IL 60655",FALSE,3633,3633,W,116TH,PL,60655,Census Bureau,41.681301889038,-87.711654461603,17031823304,FALSE,3633,3633,W,116TH, 60655
130418,"3641 W 116TH PL, CHICAGO IL 60655",FALSE,3641,3641,W,116TH,PL,60655,Census Bureau,41.681301889041,-87.711711740408,17031823304,FALSE,3641,3641,W,116TH, 60803
130420,"3702 W 116TH PL, CHICAGO IL 60655",FALSE,3702,3702,W,116TH,PL,60655,Census Bureau,41.68139808401,-87.71274330318,17031823304,FALSE,3702,3702,W,116TH, 60803
130421,"3706 W 116TH PL, CHICAGO IL 60655",FALSE,3706,3706,W,116TH,PL,60655,Census Bureau,41.681395876453,-87.71283712455,17031823304,FALSE,3706,3706,W,116TH, 60803
130422,"3708 W 116TH PL, CHICAGO IL 60655",FALSE,3708,3708,W,116TH,PL,60655,Census Bureau,41.681394772675,-87.712884035235,17031823304,FALSE,3708,3708,W,116TH, 60803
130423,"3710 W 116TH PL, CHICAGO IL 60655",FALSE,3710,3710,W,116TH,PL,60655,Census Bureau,41.681393668896,-87.71293094592,17031823304,FALSE,3710,3710,W,116TH, 60803
130424,"3714 W 116TH PL, CHICAGO IL 60655",FALSE,3714,3714,W,116TH,PL,60655,Census Bureau,41.68139146134,-87.713024767291,17031823304,FALSE,3714,3714,W,116TH, 60803
130425,"3718 W 116TH PL, CHICAGO IL 60655",FALSE,3718,3718,W,116TH,PL,60655,Census Bureau,41.681389480501,-87.713116177129,17031823304,FALSE,3718,3718,W,116TH, 60803
130426,"3720 W 116TH PL, CHICAGO IL 60655",FALSE,3720,3720,W,116TH,PL,60655,Census Bureau,41.681389480504,-87.713163111085,17031823304,FALSE,3720,3720,W,116TH, 60803
130437,"3700 W 116TH ST, CHICAGO IL 60655",FALSE,3700,3700,W,116TH,ST,60655,Census Bureau,41.682315055804,-87.712731823344,17031823304,FALSE,3700,3700,W,116TH, 60803
130438,"12409 S THROOP ST, CHICAGO IL 60827",FALSE,12409,12409,S,THROOP,ST,60827,Census Bureau,41.668338669413,-87.65370038157,17031821401,FALSE,12409,12409,S,THROOP, 60827
130439,"9418 S KEDZIE AVE, CHICAGO IL 60805",FALSE,9418,9418,S,KEDZIE,AVE,60805,Census Bureau,41.722268856809,-87.701971751805,17031821800,FALSE,9418,9418,S,KEDZIE, 60805
130440,"3701 W 116TH ST, CHICAGO IL 60655",FALSE,3701,3701,W,116TH,ST,60655,Census Bureau,41.682200499002,-87.712728054891,17031823304,FALSE,3701,3701,W,116TH, 60803
130441,"11720 S KEDZIE AVE, CHICAGO IL 60803",FALSE,11720,11720,S,KEDZIE,AVE,60803,Census Bureau,41.680203703731,-87.700477319173,17031823304,FALSE,11720,11720,S,KEDZIE, 60803
130442,"3704 W 116TH ST, CHICAGO IL 60655",FALSE,3704,3704,W,116TH,ST,60655,Census Bureau,41.68231333683,-87.712825507689,17031823304,FALSE,3704,3704,W,116TH, 60803
130443,"3705 W 116TH ST, CHICAGO IL 60622",FALSE,3705,3705,W,116TH,ST,60622,Census Bureau,41.682198780029,-87.712821739235,17031823304,FALSE,3705,3705,W,116TH, 60803
130444,"7343 W LAWRENCE AVE, CHICAGO IL 60656",FALSE,7343,7343,W,LAWRENCE,AVE,60656,Census Bureau,41.96713011516,-87.810911890979,17031810502,FALSE,7343,7343,W,LAWRENCE, 60706
130445,"3708 W 116TH ST, CHICAGO IL 60655",FALSE,3708,3708,W,116TH,ST,60655,Census Bureau,41.682311617857,-87.712919192034,17031823304,FALSE,3708,3708,W,116TH, 60803
130446,"3709 W 116TH ST, CHICAGO IL 60655",FALSE,3709,3709,W,116TH,ST,60655,Census Bureau,41.682197061055,-87.71291542358,17031823304,FALSE,3709,3709,W,116TH, 60803
130447,"3715 W 116TH ST, CHICAGO IL 60655",FALSE,3715,3715,W,116TH,ST,60655,Census Bureau,41.682194482594,-87.713055950097,17031823304,FALSE,3715,3715,W,116TH, 60803
130448,"3719 W 116TH ST, CHICAGO IL 60655",FALSE,3719,3719,W,116TH,ST,60655,Census Bureau,41.682192619227,-87.713145962698,17031823304,FALSE,3719,3719,W,116TH, 60803
130449,"3721 W 116TH ST, CHICAGO IL 60655",FALSE,3721,3721,W,116TH,ST,60655,Census Bureau,41.682190093064,-87.713192696753,17031823304,FALSE,3721,3721,W,116TH, 60803
130450,"5127 W OAKTON ST, CHICAGO IL 60077",FALSE,5127,5127,W,OAKTON,ST,60077,Census Bureau,42.026282195383,-87.756409798391,17031807700,FALSE,5127,5127,,OAKTON, 60077
130451,"4331 SW W SOUTHWEST HWY, CHICAGO IL 60456",FALSE,4331,4331,SW,W SOUTHWEST,HWY,60456,Census Bureau,41.728955265554,-87.7298069938,17031822000,FALSE,4331,4331,,SOUTHWEST, 60456
130452,"4000 N OLCOTT AVE, CHICAGO IL 60706",FALSE,4000,4000,N,OLCOTT,AVE,60706,Census Bureau,41.952652206583,-87.814705320352,17031810502,FALSE,4000,4000,N,OLCOTT, 60706
130455,"4937 W 25TH ST, CHICAGO IL 60804",FALSE,4937,4937,W,25TH,ST,60804,Census Bureau,41.845702300424,-87.747225348577,17031813801,FALSE,4937,4937,W,25TH, 60804
130457,"3726 W 116TH PL, CHICAGO IL 60655",FALSE,3726,3726,W,116TH,PL,60655,Census Bureau,41.681389480512,-87.713303912954,17031823304,FALSE,3726,3726,W,116TH, 60803
130458,"6401 N LONGMEADOW, CHICAGO IL 60712",FALSE,6401,6401,N,LONGMEADOW,,60712,Census Bureau,41.998261065142,-87.751292872005,17031807900,FALSE,6401,6401,N,LONGMEADOW, 60712
130459,"6407 N LONGMEADOW, CHICAGO IL 60712",FALSE,6407,6407,N,LONGMEADOW,,60712,Census Bureau,41.998293463279,-87.75126763108,17031807900,FALSE,6407,6407,N,LONGMEADOW, 60712
130461,"6411 N LONGMEADOW, CHICAGO IL 60712",FALSE,6411,6411,N,LONGMEADOW,,60712,Census Bureau,41.998315402685,-87.751249910789,17031807900,FALSE,6411,6411,N,LONGMEADOW, 60712
130464,"6417 N LONGMEADOW, CHICAGO IL 60712",FALSE,6417,6417,N,LONGMEADOW,,60712,Census Bureau,41.998348311794,-87.751223330354,17031807900,FALSE,6417,6417,N,LONGMEADOW, 60712
130465,"6421 N LONGMEADOW, CHICAGO IL 60712",FALSE,6421,6421,N,LONGMEADOW,,60712,Census Bureau,41.9983702512,-87.751205610063,17031807900,FALSE,6421,6421,N,LONGMEADOW, 60712
130466,"6425 N LONGMEADOW, CHICAGO IL 60712",FALSE,6425,6425,N,LONGMEADOW,,60712,Census Bureau,41.998392190606,-87.751187889773007,17031807900,FALSE,6425,6425,N,LONGMEADOW, 60712
130467,"7201 N CALDWELL, CHICAGO IL 60714",FALSE,7201,7201,N,CALDWELL,,60714,Census Bureau,42.01208039861,-87.788698570259,17031808100,FALSE,7201,7201,N,CALDWELL, 60714
130468,"7227 N HARLEM, CHICAGO IL 60714",FALSE,7227,7227,N,HARLEM,,60714,Census Bureau,42.012221879294,-87.806552223854,17031808100,FALSE,7227,7227,N,HARLEM, 60714
130469,"7415 N HARLEM, CHICAGO IL 60714",FALSE,7415,7415,N,HARLEM,,60714,Census Bureau,42.015619104164,-87.806511079205,17031808100,FALSE,7415,7415,N,HARLEM, 60714
130470,"7425 N HARLEM, CHICAGO IL 60714",FALSE,7425,7425,N,HARLEM,,60714,Census Bureau,42.015778885179,-87.806508321498,17031808100,FALSE,7425,7425,N,HARLEM, 60714
130471,"7427 N HARLEM, CHICAGO IL 60714",FALSE,7427,7427,N,HARLEM,,60714,Census Bureau,42.015810711257,-87.806508021249,17031808100,FALSE,7427,7427,N,HARLEM, 60714
130473,"8383 W BELMONT, CHICAGO IL 60171",FALSE,8383,8383,W,BELMONT,,60171,Census Bureau,41.937508498533,-87.835656605994,17031811100,FALSE,8383,8383,W,BELMONT, 60171
130474,"13704 S INDIANA, CHICAGO IL 60827",FALSE,13704,13704,S,INDIANA,,60827,Census Bureau,41.646470630593,-87.617307587884,17031821500,FALSE,13704,13704,S,INDIANA, 60827
130475,"5620 W 51ST ST, CHICAGO IL 60638",FALSE,5620,5620,W,51ST,ST,60638,Census Bureau,41.800095334376,-87.764510345375,17031820800,FALSE,5620,5620,W,51ST, 60638
130476,"5656 W 51ST ST, CHICAGO IL 60638",FALSE,5656,5656,W,51ST,ST,60638,Census Bureau,41.800091247751,-87.764681984017,17031820800,FALSE,5656,5656,W,51ST, 60638
130477,"5726 W 51ST ST, CHICAGO IL 60638",FALSE,5726,5726,W,51ST,ST,60638,Census Bureau,41.800074156009,-87.765889679046,17031820800,FALSE,5726,5726,W,51ST, 60638
130478,"5750 W 51ST ST, CHICAGO IL 60638",FALSE,5750,5750,W,51ST,ST,60638,Census Bureau,41.800052558865,-87.766863047647007,17031820800,FALSE,5750,5750,W,51ST, 60638
130479,"5800 W 51ST ST, CHICAGO IL 60638",FALSE,5800,5800,W,51ST,ST,60638,Census Bureau,41.800042603567,-87.767476228622,17031820800,FALSE,5800,5800,W,51ST, 60638
130480,"5900 W 51ST ST, CHICAGO IL 60638",FALSE,5900,5900,W,51ST,ST,60638,Census Bureau,41.799991463271,-87.769916074522,17031820800,FALSE,5900,5900,W,51ST, 60638
130481,"5950 W 51ST ST, CHICAGO IL 60638",FALSE,5950,5950,W,51ST,ST,60638,Census Bureau,41.799952698866,-87.77178081811,17031820800,FALSE,5950,5950,W,51ST, 60638
130482,"6000 W 51ST ST, CHICAGO IL 60638",FALSE,6000,6000,W,51ST,ST,60638,Census Bureau,41.799934549755,-87.772358792825,17031820800,FALSE,6000,6000,W,51ST, 60638
130483,"6200 W 51ST ST, CHICAGO IL 60638",FALSE,6200,6200,W,51ST,ST,60638,Census Bureau,41.799801599744,-87.777842681286,17031820800,FALSE,6200,6200,W,51ST, 60638
130488,"5000 S MAJOR, CHICAGO IL 60402",FALSE,5000,5000,S,MAJOR,,60402,Census Bureau,41.801301668483,-87.765242327085,17031820800,FALSE,5000,5000,S,MAJOR, 60638
130489,"4900 S MASON, CHICAGO IL 60402",FALSE,4900,4900,S,MASON,,60402,Census Bureau,41.802365347071,-87.770794538957,17031820800,FALSE,4900,4900,S,MASON, 60638
130491,"5001 S MASON, CHICAGO IL 60402",FALSE,5001,5001,S,MASON,,60402,Census Bureau,41.801159672329,-87.770595473382,17031820800,FALSE,5001,5001,S,MASON, 60638
130493,"5005 S MASON, CHICAGO IL 60402",FALSE,5005,5005,S,MASON,,60402,Census Bureau,41.801111317056,-87.770593657227,17031820800,FALSE,5005,5005,S,MASON, 60638
130494,"5063 S MERRIMAC AVE, CHICAGO IL",FALSE,5063,5063,S,MERRIMAC,AVE,,Census Bureau,41.800230577835,-87.778316352658,17031820800,FALSE,5063,5063,S,MERRIMAC, 60638
130496,"4910 S MONITOR, CHICAGO IL 60402",FALSE,4910,4910,S,MONITOR,,60402,Census Bureau,41.801900173727,-87.769149454122,17031820800,FALSE,4910,4910,S,MONITOR, 60638
130497,"4911 S MONITOR, CHICAGO IL 60402",FALSE,4911,4911,S,MONITOR,,60402,Census Bureau,41.801903252721,-87.768995788042,17031820800,FALSE,4911,4911,S,MONITOR, 60638
130499,"4920 S MONITOR, CHICAGO IL 60402",FALSE,4920,4920,S,MONITOR,,60402,Census Bureau,41.801799520914,-87.769145824824,17031820800,FALSE,4920,4920,S,MONITOR, 60638
130501,"4956 S MONITOR, CHICAGO IL 60402",FALSE,4956,4956,S,MONITOR,,60402,Census Bureau,41.801437170789,-87.769132759352,17031820800,FALSE,4956,4956,S,MONITOR, 60638
130867,"5001 S LONG, CHICAGO IL 60402",FALSE,5001,5001,S,LONG,,60402,Census Bureau,41.801883870864,-87.757603359943,17031820800,FALSE,5001,5001,S,LONG, 60638
130870,"11750 S HOMAN, CHICAGO IL 60803",FALSE,11750,11750,S,HOMAN,,60803,Census Bureau,41.680346944733,-87.705390014383,17031823304,FALSE,11750,11750,S,HOMAN, 60803
146659,"4720 S LARAMIE AVE, CHICAGO IL 60638",FALSE,4720,4720,S,LARAMIE,AVE,60638,Census Bureau,41.806887607462,-87.752999887616,17031820800,FALSE,4720,4720,S,LARAMIE, 60638
146660,"4728 S LARAMIE AVE, CHICAGO IL 60638",FALSE,4728,4728,S,LARAMIE,AVE,60638,Census Bureau,41.80676821109,-87.75299775555,17031820800,FALSE,4728,4728,S,LARAMIE, 60638
146661,"4730 S LARAMIE AVE, CHICAGO IL 60638",FALSE,4730,4730,S,LARAMIE,AVE,60638,Census Bureau,41.806738361997,-87.752997222533,17031820800,FALSE,4730,4730,S,LARAMIE, 60638
146662,"4758 S LARAMIE AVE, CHICAGO IL 60638",FALSE,4758,4758,S,LARAMIE,AVE,60638,Census Bureau,41.806319806529,-87.752983422797,17031820800,FALSE,4758,4758,S,LARAMIE, 60638
146663,"4800 S LARAMIE AVE, CHICAGO IL 60638",FALSE,4800,4800,S,LARAMIE,AVE,60638,Census Bureau,41.805608291384,-87.752962408064,17031820800,FALSE,4800,4800,S,LARAMIE, 60638
146664,"4902 S LARAMIE AVE, CHICAGO IL 60638",FALSE,4902,4902,S,LARAMIE,AVE,60638,Census Bureau,41.803746348757,-87.752911595713,17031820800,FALSE,4902,4902,S,LARAMIE, 60638
146665,"4904 S LARAMIE AVE, CHICAGO IL 60638",FALSE,4904,4904,S,LARAMIE,AVE,60638,Census Bureau,41.803711405864,-87.752910285358,17031820800,FALSE,4904,4904,S,LARAMIE, 60638
146666,"4952 S LARAMIE AVE, CHICAGO IL 60638",FALSE,4952,4952,S,LARAMIE,AVE,60638,Census Bureau,41.802873192506,-87.752886670827,17031820800,FALSE,4952,4952,S,LARAMIE, 60638
146667,"4954 S LARAMIE AVE, CHICAGO IL 60638",FALSE,4954,4954,S,LARAMIE,AVE,60638,Census Bureau,41.802838241834,-87.752885811388,17031820800,FALSE,4954,4954,S,LARAMIE, 60638
146668,"5004 S LARAMIE AVE, CHICAGO IL 60638",FALSE,5004,5004,S,LARAMIE,AVE,60638,Census Bureau,41.801903651545,-87.752858357319,17031820800,FALSE,5004,5004,S,LARAMIE, 60638
146669,"5006 S LARAMIE AVE, CHICAGO IL 60638",FALSE,5006,5006,S,LARAMIE,AVE,60638,Census Bureau,41.801878070847,-87.752857717804,17031820800,FALSE,5006,5006,S,LARAMIE, 60638
146670,"5008 S LARAMIE AVE, CHICAGO IL 60638",FALSE,5008,5008,S,LARAMIE,AVE,60638,Census Bureau,41.80185249015,-87.752857078289,17031820800,FALSE,5008,5008,S,LARAMIE, 60638
146671,"5010 S LARAMIE AVE, CHICAGO IL 60638",FALSE,5010,5010,S,LARAMIE,AVE,60638,Census Bureau,41.801826909452,-87.752856438774,17031820800,FALSE,5010,5010,S,LARAMIE, 60638
146672,"5012 S LARAMIE AVE, CHICAGO IL 60638",FALSE,5012,5012,S,LARAMIE,AVE,60638,Census Bureau,41.801801328755,-87.752855799259,17031820800,FALSE,5012,5012,S,LARAMIE, 60638
146673,"5014 S LARAMIE AVE, CHICAGO IL 60638",FALSE,5014,5014,S,LARAMIE,AVE,60638,Census Bureau,41.801775748057,-87.752855159745,17031820800,FALSE,5014,5014,S,LARAMIE, 60638
146674,"5016 S LARAMIE AVE, CHICAGO IL 60638",FALSE,5016,5016,S,LARAMIE,AVE,60638,Census Bureau,41.80175016736,-87.75285452023,17031820800,FALSE,5016,5016,S,LARAMIE, 60638
146675,"5020 S LARAMIE AVE, CHICAGO IL 60638",FALSE,5020,5020,S,LARAMIE,AVE,60638,Census Bureau,41.801699005965,-87.7528532412,17031820800,FALSE,5020,5020,S,LARAMIE, 60638
146676,"5036 S LARAMIE AVE, CHICAGO IL 60638",FALSE,5036,5036,S,LARAMIE,AVE,60638,Census Bureau,41.801494288203,-87.752847841109,17031820800,FALSE,5036,5036,S,LARAMIE, 60638
146677,"5055 S LOTUS AVE, CHICAGO IL 60638",FALSE,5055,5055,S,LOTUS,AVE,60638,Census Bureau,41.800915453347,-87.758795627446,17031820800,FALSE,5055,5055,S,LOTUS, 60638
146678,"5200 W 51ST ST, CHICAGO IL 60638",FALSE,5200,5200,W,51ST,ST,60638,Census Bureau,41.800243462276,-87.752811579829,17031820800,FALSE,5200,5200,W,51ST, 60638
146679,"5204 W 51ST ST, CHICAGO IL 60638",FALSE,5204,5204,W,51ST,ST,60638,Census Bureau,41.800243116199,-87.75299751054,17031820800,FALSE,5204,5204,W,51ST, 60638
146680,"5228 W 51ST ST, CHICAGO IL 60638",FALSE,5228,5228,W,51ST,ST,60638,Census Bureau,41.800225462353,-87.754140344897,17031820800,FALSE,5228,5228,W,51ST, 60638
146681,"5230 W 51ST ST, CHICAGO IL 60638",FALSE,5230,5230,W,51ST,ST,60638,Census Bureau,41.800225462355,-87.754175266713,17031820800,FALSE,5230,5230,W,51ST, 60638
146682,"5250 W 51ST ST, CHICAGO IL 60638",FALSE,5250,5250,W,51ST,ST,60638,Census Bureau,41.800214558153,-87.75464555143,17031820800,FALSE,5250,5250,W,51ST, 60638
146683,"5258 W 51ST ST, CHICAGO IL 60638",FALSE,5258,5258,W,51ST,ST,60638,Census Bureau,41.800212695409,-87.754721924097,17031820800,FALSE,5258,5258,W,51ST, 60638
146684,"5300 W 51ST ST, CHICAGO IL 60638",FALSE,5300,5300,W,51ST,ST,60638,Census Bureau,41.800204548744,-87.755258798181,17031820800,FALSE,5300,5300,W,51ST, 60638
146685,"5310 W 51ST ST, CHICAGO IL 60638",FALSE,5310,5310,W,51ST,ST,60638,Census Bureau,41.800198462445,-87.755713362825,17031820800,FALSE,5310,5310,W,51ST, 60638
146686,"5320 W 51ST ST, CHICAGO IL 60638",FALSE,5320,5320,W,51ST,ST,60638,Census Bureau,41.800189462472,-87.756166533946,17031820800,FALSE,5320,5320,W,51ST, 60638
146687,"5330 W 51ST ST, CHICAGO IL 60638",FALSE,5330,5330,W,51ST,ST,60638,Census Bureau,41.800180462501,-87.756656812384,17031820800,FALSE,5330,5330,W,51ST, 60638
146688,"5356 W 51ST ST, CHICAGO IL 60638",FALSE,5356,5356,W,51ST,ST,60638,Census Bureau,41.800175172447,-87.757232370772,17031820800,FALSE,5356,5356,W,51ST, 60638
146740,"11631 S LAWNDALE, CHICAGO IL 60655",FALSE,11631,11631,S,LAWNDALE,,60655,Census Bureau,41.681639634223004,-87.712550447757,17031823304,FALSE,11631,11631,S,LAWNDALE, 60803
146745,"3650 W 117TH ST, CHICAGO IL 60655",FALSE,3650,3650,W,117TH,ST,60655,Census Bureau,41.680488290492,-87.711753186699,17031823304,FALSE,3650,3650,W,117TH, 60803
146747,"9900 S CALIFORNIA AVE, CHICAGO IL 60642",FALSE,9900,9900,S,CALIFORNIA,AVE,60642,Census Bureau,41.713511873267,-87.691808126607,17031821900,FALSE,9900,9900,S,CALIFORNIA, 60805
146748,"9906 S CALIFORNIA AVE, CHICAGO IL 60642",FALSE,9906,9906,S,CALIFORNIA,AVE,60642,Census Bureau,41.713375633405,-87.691804850093,17031821900,FALSE,9906,9906,S,CALIFORNIA, 60805
146749,"9912 S CALIFORNIA AVE, CHICAGO IL 60642",FALSE,9912,9912,S,CALIFORNIA,AVE,60642,Census Bureau,41.7132397266,-87.691800603019,17031821900,FALSE,9912,9912,S,CALIFORNIA, 60805
146750,"9918 S CALIFORNIA AVE, CHICAGO IL 60642",FALSE,9918,9918,S,CALIFORNIA,AVE,60642,Census Bureau,41.713034375854,-87.691793929366,17031821900,FALSE,9918,9918,S,CALIFORNIA, 60805
146751,"9924 S CALIFORNIA AVE, CHICAGO IL 60642",FALSE,9924,9924,S,CALIFORNIA,AVE,60642,Census Bureau,41.712915309376,-87.691789677004,17031821900,FALSE,9924,9924,S,CALIFORNIA, 60805
146752,"9930 S CALIFORNIA AVE, CHICAGO IL 60805",FALSE,9930,9930,S,CALIFORNIA,AVE,60805,Census Bureau,41.712795647621,-87.691784778817,17031821900,FALSE,9930,9930,S,CALIFORNIA, 60805
146753,"9942 S CALIFORNIA AVE, CHICAGO IL 60642",FALSE,9942,9942,S,CALIFORNIA,AVE,60642,Census Bureau,41.712525985214,-87.691774794957,17031821900,FALSE,9942,9942,S,CALIFORNIA, 60805
146754,"9948 S CALIFORNIA AVE, CHICAGO IL 60642",FALSE,9948,9948,S,CALIFORNIA,AVE,60642,Census Bureau,41.712448693301,-87.691772742424,17031821900,FALSE,9948,9948,S,CALIFORNIA, 60805
146755,"9960 S CALIFORNIA AVE, CHICAGO IL 60642",FALSE,9960,9960,S,CALIFORNIA,AVE,60642,Census Bureau,41.71229494022,-87.691767617338,17031821900,FALSE,9960,9960,S,CALIFORNIA, 60805
146756,"9966 S CALIFORNIA AVE, CHICAGO IL 60642",FALSE,9966,9966,S,CALIFORNIA,AVE,60642,Census Bureau,41.71221806368,-87.691765054794,17031821900,FALSE,9966,9966,S,CALIFORNIA, 60805
146757,"10000 S CALIFORNIA AVE, CHICAGO IL 60642",FALSE,10000,10000,S,CALIFORNIA,AVE,60642,Census Bureau,41.711693873548,-87.691749624632,17031821900,FALSE,10000,10000,S,CALIFORNIA, 60805
146758,"10012 S CALIFORNIA AVE, CHICAGO IL 60642",FALSE,10012,10012,S,CALIFORNIA,AVE,60642,Census Bureau,41.711409898291,-87.691741414945,17031821900,FALSE,10012,10012,S,CALIFORNIA, 60805
146759,"10018 S CALIFORNIA AVE, CHICAGO IL 60642",FALSE,10018,10018,S,CALIFORNIA,AVE,60642,Census Bureau,41.711268124179,-87.691736689156,17031821900,FALSE,10018,10018,S,CALIFORNIA, 60805
146760,"10042 S CALIFORNIA AVE, CHICAGO IL 60642",FALSE,10042,10042,S,CALIFORNIA,AVE,60642,Census Bureau,41.710697929707,-87.691717240735,17031821900,FALSE,10042,10042,S,CALIFORNIA, 60805
146761,"10060 S CALIFORNIA AVE, CHICAGO IL 60642",FALSE,10060,10060,S,CALIFORNIA,AVE,60642,Census Bureau,41.710468002363,-87.691708817426,17031821900,FALSE,10060,10060,S,CALIFORNIA, 60805
146762,"10112 S CALIFORNIA AVE, CHICAGO IL 60642",FALSE,10112,10112,S,CALIFORNIA,AVE,60642,Census Bureau,41.709499830575,-87.691679977344,17031821900,FALSE,10112,10112,S,CALIFORNIA, 60805
146763,"10118 S CALIFORNIA AVE, CHICAGO IL 60642",FALSE,10118,10118,S,CALIFORNIA,AVE,60642,Census Bureau,41.709316508038,-87.691673966788,17031821900,FALSE,10118,10118,S,CALIFORNIA, 60805
146764,"10126 S CALIFORNIA AVE, CHICAGO IL 60642",FALSE,10126,10126,S,CALIFORNIA,AVE,60642,Census Bureau,41.709072395433,-87.691666916732,17031821900,FALSE,10126,10126,S,CALIFORNIA, 60805
146765,"10132 S CALIFORNIA AVE, CHICAGO IL 60642",FALSE,10132,10132,S,CALIFORNIA,AVE,60642,Census Bureau,41.708911404358,-87.691660312477,17031821900,FALSE,10132,10132,S,CALIFORNIA, 60805
146766,"10136 S CALIFORNIA AVE, CHICAGO IL 60642",FALSE,10136,10136,S,CALIFORNIA,AVE,60642,Census Bureau,41.708866022842,-87.691658043406,17031821900,FALSE,10136,10136,S,CALIFORNIA, 60805
146767,"10140 S CALIFORNIA AVE, CHICAGO IL 60642",FALSE,10140,10140,S,CALIFORNIA,AVE,60642,Census Bureau,41.708821371196,-87.691656035038,17031821900,FALSE,10140,10140,S,CALIFORNIA, 60805
146768,"10146 S CALIFORNIA AVE, CHICAGO IL 60642",FALSE,10146,10146,S,CALIFORNIA,AVE,60642,Census Bureau,41.708753271912,-87.691653802282,17031821900,FALSE,10146,10146,S,CALIFORNIA, 60805
146769,"10150 S CALIFORNIA AVE, CHICAGO IL 60642",FALSE,10150,10150,S,CALIFORNIA,AVE,60642,Census Bureau,41.70870787239,-87.691652313778,17031821900,FALSE,10150,10150,S,CALIFORNIA, 60805
146770,"10154 S CALIFORNIA AVE, CHICAGO IL 60642",FALSE,10154,10154,S,CALIFORNIA,AVE,60642,Census Bureau,41.708662472868,-87.691650825273,17031821900,FALSE,10154,10154,S,CALIFORNIA, 60805
146771,"10158 S CALIFORNIA AVE, CHICAGO IL 60642",FALSE,10158,10158,S,CALIFORNIA,AVE,60642,Census Bureau,41.708617073346,-87.691649336769,17031821900,FALSE,10158,10158,S,CALIFORNIA, 60805
146772,"10204 S CALIFORNIA AVE, CHICAGO IL 60655",FALSE,10204,10204,S,CALIFORNIA,AVE,60655,Census Bureau,41.707944289118,-87.691625905728,17031821900,FALSE,10204,10204,S,CALIFORNIA, 60805
146773,"10208 S CALIFORNIA AVE, CHICAGO IL 60655",FALSE,10208,10208,S,CALIFORNIA,AVE,60655,Census Bureau,41.707841798669,-87.691622839706,17031821900,FALSE,10208,10208,S,CALIFORNIA, 60805
146774,"10212 S CALIFORNIA AVE, CHICAGO IL 60655",FALSE,10212,10212,S,CALIFORNIA,AVE,60655,Census Bureau,41.70773824836,-87.691620207081,17031821900,FALSE,10212,10212,S,CALIFORNIA, 60805
146775,"10214 S CALIFORNIA AVE, CHICAGO IL 60655",FALSE,10214,10214,S,CALIFORNIA,AVE,60655,Census Bureau,41.707686473205,-87.691618890769,17031821900,FALSE,10214,10214,S,CALIFORNIA, 60805
146776,"10218 S CALIFORNIA AVE, CHICAGO IL 60655",FALSE,10218,10218,S,CALIFORNIA,AVE,60655,Census Bureau,41.707582922896,-87.691616258145,17031821900,FALSE,10218,10218,S,CALIFORNIA, 60805
146777,"10222 S CALIFORNIA AVE, CHICAGO IL 60655",FALSE,10222,10222,S,CALIFORNIA,AVE,60655,Census Bureau,41.707479372587,-87.69161362552,17031821900,FALSE,10222,10222,S,CALIFORNIA, 60805
148117,"7501 W FOSTER AVE, CHICAGO IL 60656",FALSE,7501,7501,W,FOSTER,AVE,60656,Census Bureau,41.974294064685,-87.814529823998,17031770901,FALSE,7501,7501,W,FOSTER, 60706
148118,"7515 W FOSTER AVE, CHICAGO IL 60656",FALSE,7515,7515,W,FOSTER,AVE,60656,Census Bureau,41.974275245964,-87.815214966001,17031770901,FALSE,7515,7515,W,FOSTER, 60706
148119,"7527 W FOSTER AVE, CHICAGO IL 60656",FALSE,7527,7527,W,FOSTER,AVE,60656,Census Bureau,41.974256985461,-87.815787464764,17031770901,FALSE,7527,7527,W,FOSTER, 60706
148120,"6755 N IONIA AVE, CHICAGO IL 60646",FALSE,6755,6755,N,IONIA,AVE,60646,Census Bureau,42.003484067756,-87.765975875895,17031807800,FALSE,6755,6755,N,IONIA, 60646
148121,"6769 N IONIA AVE, CHICAGO IL 60646",FALSE,6769,6769,N,IONIA,AVE,60646,Census Bureau,42.003745106533,-87.766542504452,17031807800,FALSE,6769,6769,N,IONIA, 60646
148122,"6787 N IONIA AVE, CHICAGO IL 60646",FALSE,6787,6787,N,IONIA,AVE,60646,Census Bureau,42.004088166395,-87.767262915087,17031807800,FALSE,6787,6787,N,IONIA, 60646
148123,"6793 N IONIA AVE, CHICAGO IL 60646",FALSE,6793,6793,N,IONIA,AVE,60646,Census Bureau,42.004203469537,-87.767504510921,17031807800,FALSE,6793,6793,N,IONIA, 60646
148124,"6797 N IONIA AVE, CHICAGO IL 60646",FALSE,6797,6797,N,IONIA,AVE,60646,Census Bureau,42.00427876942,-87.767665867765,17031807800,FALSE,6797,6797,N,IONIA, 60646
148125,"4500 N NARRAGANSETT AVE, CHICAGO IL 60630",FALSE,4500,4500,N,NARRAGANSETT,AVE,60630,Census Bureau,41.963455114846,-87.786934176351,17031810600,FALSE,4500,4500,N,NARRAGANSETT, 60630
148126,"4514 N NARRAGANSETT AVE, CHICAGO IL 60630",FALSE,4514,4514,N,NARRAGANSETT,AVE,60630,Census Bureau,41.963638067337,-87.78687225015,17031810600,FALSE,4514,4514,N,NARRAGANSETT, 60630
219175,"W 125TH ST & S HALSTED, CHICAGO IL 60628",TRUE,,,,,,60628,Census Bureau,41.666896183343,-87.641548767616,17031821402,TRUE,,,W,125TH ST & S HALSTED, 60628
219882,"4700-04 S LARAMIE AVE, CHICAGO IL 60638",FALSE,4700,4704,S,LARAMIE,AVE,60638,Census Bureau,41.807453537328,-87.753004274907,17031820800,FALSE,4700,4700,S,LARAMIE, 60638
219883,"4716 S LARAMIE AVE, CHICAGO IL 60638",FALSE,4716,4716,S,LARAMIE,AVE,60638,Census Bureau,41.806946281361,-87.753001420883,17031820800,FALSE,4716,4716,S,LARAMIE, 60638
219884,"4732 S LARAMIE AVE, CHICAGO IL 60638",FALSE,4732,4732,S,LARAMIE,AVE,60638,Census Bureau,41.806708512904,-87.752996689517,17031820800,FALSE,4732,4732,S,LARAMIE, 60638
219885,"4734 S LARAMIE AVE, CHICAGO IL 60638",FALSE,4734,4734,S,LARAMIE,AVE,60638,Census Bureau,41.806678663811,-87.7529961565,17031820800,FALSE,4734,4734,S,LARAMIE, 60638
219886,"4752 S LARAMIE AVE, CHICAGO IL 60638",FALSE,4752,4752,S,LARAMIE,AVE,60638,Census Bureau,41.806409330023,-87.752986620055,17031820800,FALSE,4752,4752,S,LARAMIE, 60638
219887,"4754 S LARAMIE AVE, CHICAGO IL 60638",FALSE,4754,4754,S,LARAMIE,AVE,60638,Census Bureau,41.806379488858,-87.752985554303,17031820800,FALSE,4754,4754,S,LARAMIE, 60638
219888,"4808 S LARAMIE AVE, CHICAGO IL 60638",FALSE,4808,4808,S,LARAMIE,AVE,60638,Census Bureau,41.80546852603,-87.752957166878,17031820800,FALSE,4808,4808,S,LARAMIE, 60638
219889,"4906 S LARAMIE AVE, CHICAGO IL 60638",FALSE,4906,4906,S,LARAMIE,AVE,60638,Census Bureau,41.803676462971,-87.752908975003,17031820800,FALSE,4906,4906,S,LARAMIE, 60638
219890,"4910 S LARAMIE AVE, CHICAGO IL 60638",FALSE,4910,4910,S,LARAMIE,AVE,60638,Census Bureau,41.803606577185,-87.752906354293,17031820800,FALSE,4910,4910,S,LARAMIE, 60638
219891,"4912 S LARAMIE AVE, CHICAGO IL 60638",FALSE,4912,4912,S,LARAMIE,AVE,60638,Census Bureau,41.803571634292,-87.752905043938,17031820800,FALSE,4912,4912,S,LARAMIE, 60638
219892,"4924 S LARAMIE AVE, CHICAGO IL 60638",FALSE,4924,4924,S,LARAMIE,AVE,60638,Census Bureau,41.803362501905,-87.752898702975,17031820800,FALSE,4924,4924,S,LARAMIE, 60638
219893,"4926 S LARAMIE AVE, CHICAGO IL 60638",FALSE,4926,4926,S,LARAMIE,AVE,60638,Census Bureau,41.803327551234,-87.752897843536,17031820800,FALSE,4926,4926,S,LARAMIE, 60638
219894,"4932 S LARAMIE AVE, CHICAGO IL 60638",FALSE,4932,4932,S,LARAMIE,AVE,60638,Census Bureau,41.80322269922,-87.752895265219,17031820800,FALSE,4932,4932,S,LARAMIE, 60638
219895,"5018 S LARAMIE AVE, CHICAGO IL 60638",FALSE,5018,5018,S,LARAMIE,AVE,60638,Census Bureau,41.801724586662,-87.752853880715,17031820800,FALSE,5018,5018,S,LARAMIE, 60638
219896,"5206 W 51ST ST, CHICAGO IL 60638",FALSE,5206,5206,W,51ST,ST,60638,Census Bureau,41.800240853328,-87.75308915699,17031820800,FALSE,5206,5206,W,51ST, 60638
219897,"5212 W 51ST ST, CHICAGO IL 60638",FALSE,5212,5212,W,51ST,ST,60638,Census Bureau,41.800232534215,-87.753426081784,17031820800,FALSE,5212,5212,W,51ST, 60638
219898,"5214 W 51ST ST, CHICAGO IL 60638",FALSE,5214,5214,W,51ST,ST,60638,Census Bureau,41.800229705627,-87.753540639861,17031820800,FALSE,5214,5214,W,51ST, 60638
219899,"5232 W 51ST ST, CHICAGO IL 60638",FALSE,5232,5232,W,51ST,ST,60638,Census Bureau,41.800225221998,-87.754212728162,17031820800,FALSE,5232,5232,W,51ST, 60638
219900,"5234 W 51ST ST, CHICAGO IL 60638",FALSE,5234,5234,W,51ST,ST,60638,Census Bureau,41.800224360206,-87.754247630835,17031820800,FALSE,5234,5234,W,51ST, 60638
219901,"5238 W 51ST ST, CHICAGO IL 60638",FALSE,5238,5238,W,51ST,ST,60638,Census Bureau,41.800222636621,-87.754317436183,17031820800,FALSE,5238,5238,W,51ST, 60638
219902,"5254 W 51ST ST, CHICAGO IL 60638",FALSE,5254,5254,W,51ST,ST,60638,Census Bureau,41.800213626781,-87.754683737764,17031820800,FALSE,5254,5254,W,51ST, 60638
219903,"5304 W 51ST ST, CHICAGO IL 60638",FALSE,5304,5304,W,51ST,ST,60638,Census Bureau,41.80019846243,-87.755438212745,17031820800,FALSE,5304,5304,W,51ST, 60638
219904,"5316 W 51ST ST, CHICAGO IL 60638",FALSE,5316,5316,W,51ST,ST,60638,Census Bureau,41.800192766281,-87.756019356276,17031820800,FALSE,5316,5316,W,51ST, 60638
219905,"5360 W 51ST ST, CHICAGO IL 60638",FALSE,5360,5360,W,51ST,ST,60638,Census Bureau,41.800174420036,-87.757263219684,17031820800,FALSE,5360,5360,W,51ST, 60638
219906,"5312 W 51ST ST, CHICAGO IL 60638",FALSE,5312,5312,W,51ST,ST,60638,Census Bureau,41.800196509887,-87.755869611732,17031820800,FALSE,5312,5312,W,51ST, 60638
219908,"3653 W 116TH PL, CHICAGO IL 60655",FALSE,3653,3653,W,116TH,PL,60655,Census Bureau,41.681310205954,-87.711889520419,17031823304,FALSE,3653,3653,W,116TH, 60803
219909,"11533 S HOMAN AVE, CHICAGO IL 60803",FALSE,11533,11533,S,HOMAN,AVE,60803,Census Bureau,41.682957690716,-87.705291165452,17031823304,FALSE,11533,11533,S,HOMAN, 60803
219910,"9936 S CALIFORNIA AVE, CHICAGO IL 60642",FALSE,9936,9936,S,CALIFORNIA,AVE,60642,Census Bureau,41.712602873408,-87.69177662562,17031821900,FALSE,9936,9936,S,CALIFORNIA, 60805
219911,"10006 S CALIFORNIA AVE, CHICAGO IL 60642",FALSE,10006,10006,S,CALIFORNIA,AVE,60642,Census Bureau,41.711551672404,-87.691746140734,17031821900,FALSE,10006,10006,S,CALIFORNIA, 60805
219912,"10024 S CALIFORNIA AVE, CHICAGO IL 60642",FALSE,10024,10024,S,CALIFORNIA,AVE,60642,Census Bureau,41.711126350066,-87.691731963367,17031821900,FALSE,10024,10024,S,CALIFORNIA, 60805
219913,"10030 S CALIFORNIA AVE, CHICAGO IL 60642",FALSE,10030,10030,S,CALIFORNIA,AVE,60642,Census Bureau,41.710984977376,-87.691727602498,17031821900,FALSE,10030,10030,S,CALIFORNIA, 60805
219914,"10036 S CALIFORNIA AVE, CHICAGO IL 60642",FALSE,10036,10036,S,CALIFORNIA,AVE,60642,Census Bureau,41.710774785623,-87.691721083523,17031821900,FALSE,10036,10036,S,CALIFORNIA, 60805
219915,"10048 S CALIFORNIA AVE, CHICAGO IL 60642",FALSE,10048,10048,S,CALIFORNIA,AVE,60642,Census Bureau,41.710621773632,-87.691713943119,17031821900,FALSE,10048,10048,S,CALIFORNIA, 60805
219916,"10054 S CALIFORNIA AVE, CHICAGO IL 60642",FALSE,10054,10054,S,CALIFORNIA,AVE,60642,Census Bureau,41.710544887998,-87.691711380273,17031821900,FALSE,10054,10054,S,CALIFORNIA, 60805
219917,"10066 S CALIFORNIA AVE, CHICAGO IL 60642",FALSE,10066,10066,S,CALIFORNIA,AVE,60642,Census Bureau,41.710391116729,-87.69170625458,17031821900,FALSE,10066,10066,S,CALIFORNIA, 60805
219918,"10100 S CALIFORNIA AVE, CHICAGO IL 60642",FALSE,10100,10100,S,CALIFORNIA,AVE,60642,Census Bureau,41.709866823864,-87.691691053231,17031821900,FALSE,10100,10100,S,CALIFORNIA, 60805
219919,"10104 S CALIFORNIA AVE, CHICAGO IL 60642",FALSE,10104,10104,S,CALIFORNIA,AVE,60642,Census Bureau,41.709744593521,-87.691687997485,17031821900,FALSE,10104,10104,S,CALIFORNIA, 60805
219920,"10108 S CALIFORNIA AVE, CHICAGO IL 60642",FALSE,10108,10108,S,CALIFORNIA,AVE,60642,Census Bureau,41.7096220456,-87.691683984382,17031821900,FALSE,10108,10108,S,CALIFORNIA, 60805
219921,"10114 S CALIFORNIA AVE, CHICAGO IL 60642",FALSE,10114,10114,S,CALIFORNIA,AVE,60642,Census Bureau,41.709438723063,-87.691677973826,17031821900,FALSE,10114,10114,S,CALIFORNIA, 60805
219922,"10122 S CALIFORNIA AVE, CHICAGO IL 60642",FALSE,10122,10122,S,CALIFORNIA,AVE,60642,Census Bureau,41.709194625775,-87.691669972478,17031821900,FALSE,10122,10122,S,CALIFORNIA, 60805
219923,"10200 S CALIFORNIA AVE, CHICAGO IL 60655",FALSE,10200,10200,S,CALIFORNIA,AVE,60655,Census Bureau,41.708047786,-87.691631080561,17031821900,FALSE,10200,10200,S,CALIFORNIA, 60805
219924,"10226 S CALIFORNIA AVE, CHICAGO IL 60655",FALSE,10226,10226,S,CALIFORNIA,AVE,60655,Census Bureau,41.707375269538,-87.691610723403,17031821900,FALSE,10226,10226,S,CALIFORNIA, 60805
225075,"1914 N HARLEM AVE, CHICAGO IL 60707",FALSE,1914,1914,N,HARLEM,AVE,60707,Census Bureau,41.914784435095,-87.806039242671,17031810900,FALSE,1914,1914,N,HARLEM, 60707
226873,"7453 W FOSTER AVE, CHICAGO IL 60656",FALSE,7453,7453,W,FOSTER,AVE,60656,Census Bureau,41.974305844513,-87.813982090072,17031770901,FALSE,7453,7453,W,FOSTER, 60706
226874,"7459 W FOSTER AVE, CHICAGO IL 60656",FALSE,7459,7459,W,FOSTER,AVE,60656,Census Bureau,41.974305844516,-87.814034091915,17031770901,FALSE,7459,7459,W,FOSTER, 60706
226875,"7461 W FOSTER AVE, CHICAGO IL 60656",FALSE,7461,7461,W,FOSTER,AVE,60656,Census Bureau,41.974305844517,-87.814051425863,17031770901,FALSE,7461,7461,W,FOSTER, 60706
226876,"7509 W FOSTER AVE, CHICAGO IL 60656",FALSE,7509,7509,W,FOSTER,AVE,60656,Census Bureau,41.97428239526,-87.814921844201,17031770901,FALSE,7509,7509,W,FOSTER, 60706
226877,"7523 W FOSTER AVE, CHICAGO IL 60656",FALSE,7523,7523,W,FOSTER,AVE,60656,Census Bureau,41.974263712152,-87.815604444918,17031770901,FALSE,7523,7523,W,FOSTER, 60706
226878,"7525 W FOSTER AVE, CHICAGO IL 60656",FALSE,7525,7525,W,FOSTER,AVE,60656,Census Bureau,41.974258064762,-87.815758323601,17031770901,FALSE,7525,7525,W,FOSTER, 60706
226879,"7751 W FOSTER AVE, CHICAGO IL 60656",FALSE,7751,7751,W,FOSTER,AVE,60656,Census Bureau,41.974134242732,-87.8206472816,17031770901,FALSE,7751,7751,W,FOSTER, 60706
226880,"6765 N IONIA AVE, CHICAGO IL 60646",FALSE,6765,6765,N,IONIA,AVE,60646,Census Bureau,42.003670403275,-87.766380647439,17031807800,FALSE,6765,6765,N,IONIA, 60646
226881,"6773 N IONIA AVE, CHICAGO IL 60646",FALSE,6773,6773,N,IONIA,AVE,60646,Census Bureau,42.003819809792,-87.766704361466,17031807800,FALSE,6773,6773,N,IONIA, 60646
226882,"6777 N IONIA AVE, CHICAGO IL 60646",FALSE,6777,6777,N,IONIA,AVE,60646,Census Bureau,42.003894743648,-87.766863980786,17031807800,FALSE,6777,6777,N,IONIA, 60646
226883,"6783 N IONIA AVE, CHICAGO IL 60646",FALSE,6783,6783,N,IONIA,AVE,60646,Census Bureau,42.004010797296,-87.767103341366,17031807800,FALSE,6783,6783,N,IONIA, 60646
226884,"4702 N NARRAGANSETT AVE, CHICAGO IL 60630",FALSE,4702,4702,N,NARRAGANSETT,AVE,60630,Census Bureau,41.966145463159,-87.786822954271,17031810600,FALSE,4702,4702,N,NARRAGANSETT, 60706
235117,"5064 S MERRIMAC AVE, CHICAGO IL 60638",FALSE,5064,5064,S,MERRIMAC,AVE,60638,Census Bureau,41.800100645887,-87.77846667807,17031820800,FALSE,5064,5064,S,MERRIMAC, 60638
236758,"5058 S LOTUS AVE, CHICAGO IL 60638",FALSE,5058,5058,S,LOTUS,AVE,60638,Census Bureau,41.800843824132,-87.758947310689,17031820800,FALSE,5058,5058,S,LOTUS, 60638
346402,"10142 S CALIFORNIA AVE, CHICAGO IL 60642",FALSE,10142,10142,S,CALIFORNIA,AVE,60642,Census Bureau,41.708798671435,-87.691655290786,17031821900,FALSE,10142,10142,S,CALIFORNIA, 60805
347681,"7411 W FOSTER AVE, CHICAGO IL 60656",FALSE,7411,7411,W,FOSTER,AVE,60656,Census Bureau,41.974334455114,-87.812841832985,17031770901,FALSE,7411,7411,W,FOSTER, 60706
360229,"4722 S LARAMIE AVE, CHICAGO IL 60638",FALSE,4722,4722,S,LARAMIE,AVE,60638,Census Bureau,41.806857758369,-87.752999354599,17031820800,FALSE,4722,4722,S,LARAMIE, 60638
372018,"5038 S LARAMIE AVE, CHICAGO IL 60638",FALSE,5038,5038,S,LARAMIE,AVE,60638,Census Bureau,41.801468708162,-87.752847155932,17031820800,FALSE,5038,5038,S,LARAMIE, 60638
380713,"4726 S LARAMIE AVE, CHICAGO IL 60638",FALSE,4726,4726,S,LARAMIE,AVE,60638,Census Bureau,41.806798060183,-87.752998288566,17031820800,FALSE,4726,4726,S,LARAMIE, 60638
380714,"4900 S LARAMIE AVE, CHICAGO IL 60638",FALSE,4900,4900,S,LARAMIE,AVE,60638,Census Bureau,41.80378129165,-87.752912906067,17031820800,FALSE,4900,4900,S,LARAMIE, 60638
404579,"E 137TH PL & S INDIANA, CHICAGO IL",TRUE,,,,,,,Census Bureau,41.645746185649,-87.617235276842,17031821500,TRUE,,,E,137TH PL & S INDIANA, 60827
411084,"6751 N IONIA AVE, CHICAGO IL 60646",FALSE,6751,6751,N,IONIA,AVE,60646,Census Bureau,42.003404875858,-87.765813040336,17031807800,FALSE,6751,6751,N,IONIA, 60646
411110,"4832 S LARAMIE AVE, CHICAGO IL 60638",FALSE,4832,4832,S,LARAMIE,AVE,60638,Census Bureau,41.805049723819,-87.752944767826,17031820800,FALSE,4832,4832,S,LARAMIE, 60638
411111,"4834 S LARAMIE AVE, CHICAGO IL 60638",FALSE,4834,4834,S,LARAMIE,AVE,60638,Census Bureau,41.805014774703,-87.752943908426,17031820800,FALSE,4834,4834,S,LARAMIE, 60638
411112,"4840 S LARAMIE AVE, CHICAGO IL 60638",FALSE,4840,4840,S,LARAMIE,AVE,60638,Census Bureau,41.804909927355,-87.752941330223,17031820800,FALSE,4840,4840,S,LARAMIE, 60638
411113,"4848 S LARAMIE AVE, CHICAGO IL 60638",FALSE,4848,4848,S,LARAMIE,AVE,60638,Census Bureau,41.80477013089,-87.752937892619,17031820800,FALSE,4848,4848,S,LARAMIE, 60638
411114,"4850 S LARAMIE AVE, CHICAGO IL 60638",FALSE,4850,4850,S,LARAMIE,AVE,60638,Census Bureau,41.804735181774,-87.752937033218,17031820800,FALSE,4850,4850,S,LARAMIE, 60638
411115,"5340 W 51ST ST, CHICAGO IL 60638",FALSE,5340,5340,W,51ST,ST,60638,Census Bureau,41.800178182091,-87.757108975124,17031820800,FALSE,5340,5340,W,51ST, 60638
413260,"7511 W FOSTER AVE, CHICAGO IL 60656",FALSE,7511,7511,W,FOSTER,AVE,60656,Census Bureau,41.974280012162,-87.815019551468,17031770901,FALSE,7511,7511,W,FOSTER, 60706
413261,"6781 N IONIA AVE, CHICAGO IL 60646",FALSE,6781,6781,N,IONIA,AVE,60646,Census Bureau,42.003972112747,-87.767023554506,17031807800,FALSE,6781,6781,N,IONIA, 60646
413304,"4836 S LARAMIE AVE, CHICAGO IL 60638",FALSE,4836,4836,S,LARAMIE,AVE,60638,Census Bureau,41.804979825587,-87.752943049025,17031820800,FALSE,4836,4836,S,LARAMIE, 60638
413305,"4838 S LARAMIE AVE, CHICAGO IL 60638",FALSE,4838,4838,S,LARAMIE,AVE,60638,Census Bureau,41.804944876471,-87.752942189624,17031820800,FALSE,4838,4838,S,LARAMIE, 60638
413306,"4842 S LARAMIE AVE, CHICAGO IL 60638",FALSE,4842,4842,S,LARAMIE,AVE,60638,Census Bureau,41.804874978239,-87.752940470822,17031820800,FALSE,4842,4842,S,LARAMIE, 60638
413307,"4844 S LARAMIE AVE, CHICAGO IL 60638",FALSE,4844,4844,S,LARAMIE,AVE,60638,Census Bureau,41.804840029123,-87.752939611421,17031820800,FALSE,4844,4844,S,LARAMIE, 60638
413308,"4854 S LARAMIE AVE, CHICAGO IL 60638",FALSE,4854,4854,S,LARAMIE,AVE,60638,Census Bureau,41.804665283542,-87.752935314416,17031820800,FALSE,4854,4854,S,LARAMIE, 60638
413309,"4856 S LARAMIE AVE, CHICAGO IL 60638",FALSE,4856,4856,S,LARAMIE,AVE,60638,Census Bureau,41.804630334426,-87.752934455015,17031820800,FALSE,4856,4856,S,LARAMIE, 60638
413310,"4858 S LARAMIE AVE, CHICAGO IL 60638",FALSE,4858,4858,S,LARAMIE,AVE,60638,Census Bureau,41.80459538531,-87.752933595615,17031820800,FALSE,4858,4858,S,LARAMIE, 60638
414334,"6200 W 51ST ST, CHICAGO IL 60638",FALSE,6200,6200,W,51ST,ST,60638,Census Bureau,41.799801599744,-87.777842681286,17031820800,FALSE,6200,6200,W,51ST, 60638
414394,"5800 W 51ST ST, CHICAGO IL 60638",FALSE,5800,5800,W,51ST,ST,60638,Census Bureau,41.800042603567,-87.767476228622,17031820800,FALSE,5800,5800,W,51ST, 60638
414395,"5800 W 51ST ST, CHICAGO IL 60638",FALSE,5800,5800,W,51ST,ST,60638,Census Bureau,41.800042603567,-87.767476228622,17031820800,FALSE,5800,5800,W,51ST, 60638
414396,"6050 W 51ST ST, CHICAGO IL 60638",FALSE,6050,6050,W,51ST,ST,60638,Census Bureau,41.79987640264,-87.774388939591,17031820800,FALSE,6050,6050,W,51ST, 60638
414397,"6200 W 51ST ST, CHICAGO IL 60638",FALSE,6200,6200,W,51ST,ST,60638,Census Bureau,41.799801599744,-87.777842681286,17031820800,FALSE,6200,6200,W,51ST, 60638
414402,"W 125TH ST & S HALSTED, CHICAGO IL 60628",TRUE,,,,,,60628,Census Bureau,41.666896183343,-87.641548767616,17031821402,TRUE,,,W,125TH ST & S HALSTED, 60628
414603,"5064 S MERRIMAC AVE, CHICAGO IL 60638",FALSE,5064,5064,S,MERRIMAC,AVE,60638,Census Bureau,41.800100645887,-87.77846667807,17031820800,FALSE,5064,5064,S,MERRIMAC, 60638
414604,"5064 S MERRIMAC AVE, CHICAGO IL 60638",FALSE,5064,5064,S,MERRIMAC,AVE,60638,Census Bureau,41.800100645887,-87.77846667807,17031820800,FALSE,5064,5064,S,MERRIMAC, 60638
415312,"4808 S CENTRAL AVE, CHICAGO IL 60638",FALSE,4808,4808,S,CENTRAL,AVE,60638,Census Bureau,41.805328462719,-87.762772551602,17031820800,FALSE,4808,4808,S,CENTRAL, 60638
415313,"5063 S MERRIMAC AVE, CHICAGO IL",FALSE,5063,5063,S,MERRIMAC,AVE,,Census Bureau,41.800230577835,-87.778316352658,17031820800,FALSE,5063,5063,S,MERRIMAC, 60638
418935,"W MAIN ST & S 23RD AVE, CHICAGO IL 60160",TRUE,,,,,,60160,Census Bureau,41.891464157016,-87.861454680678,17031816401,TRUE,,,,, 60160
418936,"W MAIN ST & S 23RD AVE, CHICAGO IL 60160",TRUE,,,,,,60160,Census Bureau,41.891464157016,-87.861454680678,17031816401,TRUE,,,,, 60160
418969,"E 137TH PL & S INDIANA, CHICAGO IL",TRUE,,,,,,,Census Bureau,41.645746185649,-87.617235276842,17031821500,TRUE,,,E,137TH PL & S INDIANA, 60827
419042,"W 119TH ST & WESTERN, CHICAGO IL 60643",TRUE,,,,,,60643,Census Bureau,41.677255183721,-87.680694255088,17031821200,TRUE,,,W,119TH ST & S WESTERN, 60643
419043,"W 119TH ST & WESTERN, CHICAGO IL 60643",TRUE,,,,,,60643,Census Bureau,41.677255183721,-87.680694255088,17031821200,TRUE,,,W,119TH ST & S WESTERN, 60643
419048,"W 87TH ST & CENTRAL, CHICAGO IL 60459",TRUE,,,,,,60459,Census Bureau,41.73418917835,-87.760560225995,17031821101,TRUE,,,W,87TH ST & CENTRAL, 60459
419057,"3025 W 113TH ST, CHICAGO IL 60655",FALSE,3025,3025,W,113TH,ST,60655,Census Bureau,41.687925887073,-87.69675108576,17031823304,FALSE,3025,3025,W,113TH, 60803
419058,"3025 W 113TH ST, CHICAGO IL 60655",FALSE,3025,3025,W,113TH,ST,60655,Census Bureau,41.687925887073,-87.69675108576,17031823304,FALSE,3025,3025,W,113TH, 60803
419076,"4031 W 115TH ST, CHICAGO IL 60803",FALSE,4031,4031,W,115TH,ST,60803,Census Bureau,41.683897482538,-87.720699925914,17031823303,FALSE,4031,4031,W,115TH, 60803
419083,"12620 S HALSTED, CHICAGO IL 60827",FALSE,12620,12620,S,HALSTED,,60827,Census Bureau,41.664816220978,-87.641556307327,17031821402,FALSE,12620,12620,S,HALSTED, 60827
420258,"7800 W IRVING PARK RD, CHICAGO IL 60634",FALSE,7800,7800,W,IRVING PARK,RD,60634,Census Bureau,41.952465012703,-87.822058752585,17031810501,FALSE,7800,7800,W,IRVING PARK, 60706
420259,"7800 W IRVING PARK RD, CHICAGO IL 60634",FALSE,7800,7800,W,IRVING PARK,RD,60634,Census Bureau,41.952465012703,-87.822058752585,17031810501,FALSE,7800,7800,W,IRVING PARK, 60706
421585,"W BRYN MAWR & RIVER RD, CHICAGO IL 60018",TRUE,,,,,,60018,Census Bureau,41.980582141832,-87.861981171569,17031770700,TRUE,,,,, 60018
421586,"W BRYN MAWR & RIVER RD, CHICAGO IL 60018",TRUE,,,,,,60018,Census Bureau,41.980582141832,-87.861981171569,17031770700,TRUE,,,,, 60018
423224,"5656 W 51ST ST, CHICAGO IL 60638",FALSE,5656,5656,W,51ST,ST,60638,Census Bureau,41.800091247751,-87.764681984017,17031820800,FALSE,5656,5656,W,51ST, 60638
424476,"4908 S LARAMIE AVE, CHICAGO IL 60638",FALSE,4908,4908,S,LARAMIE,AVE,60638,Census Bureau,41.803641520078,-87.752907664648,17031820800,FALSE,4908,4908,S,LARAMIE, 60638
424477,"4846 S LARAMIE AVE, CHICAGO IL 60638",FALSE,4846,4846,S,LARAMIE,AVE,60638,Census Bureau,41.804805080007,-87.75293875202,17031820800,FALSE,4846,4846,S,LARAMIE, 60638
424478,"4806 S LARAMIE AVE, CHICAGO IL 60638",FALSE,4806,4806,S,LARAMIE,AVE,60638,Census Bureau,41.805503467369,-87.752958477174,17031820800,FALSE,4806,4806,S,LARAMIE, 60638
424705,"7125 W 65TH ST, CHICAGO IL 60638",FALSE,7125,7125,W,65TH,ST,60638,Census Bureau,41.773674352784,-87.798971898793,17031820901,FALSE,7125,7125,W,65TH, 60638
424789,"5043 W 67TH ST, CHICAGO IL 60638",FALSE,5043,5043,W,67TH,ST,60638,Census Bureau,41.77095684254,-87.747870044891,17031820901,FALSE,5043,5043,W,67TH, 60638
424790,"5043 W 67TH ST, CHICAGO IL 60638",FALSE,5043,5043,W,67TH,ST,60638,Census Bureau,41.77095684254,-87.747870044891,17031820901,FALSE,5043,5043,W,67TH, 60638
424791,"5043 W 67TH ST, CHICAGO IL 60638",FALSE,5043,5043,W,67TH,ST,60638,Census Bureau,41.77095684254,-87.747870044891,17031820901,FALSE,5043,5043,W,67TH, 60638
424792,"5043 W 67TH ST, CHICAGO IL 60638",FALSE,5043,5043,W,67TH,ST,60638,Census Bureau,41.77095684254,-87.747870044891,17031820901,FALSE,5043,5043,W,67TH, 60638
425217,"3701 W 115TH ST, CHICAGO IL 60803",FALSE,3701,3701,W,115TH,ST,60803,Census Bureau,41.684018485954,-87.71280903888,17031823304,FALSE,3701,3701,W,115TH, 60803
425356,"5201 W ROOSEVELT RD, CHICAGO IL 60656",FALSE,5201,5201,W,ROOSEVELT,RD,60656,Census Bureau,41.865692089218,-87.754811698114,17031813301,FALSE,5201,5201,W,ROOSEVELT, 60804
425357,"5201 W ROOSEVELT RD, CHICAGO IL 60656",FALSE,5201,5201,W,ROOSEVELT,RD,60656,Census Bureau,41.865692089218,-87.754811698114,17031813301,FALSE,5201,5201,W,ROOSEVELT, 60804
425358,"5201 W ROOSEVELT RD, CHICAGO IL 60656",FALSE,5201,5201,W,ROOSEVELT,RD,60656,Census Bureau,41.865692089218,-87.754811698114,17031813301,FALSE,5201,5201,W,ROOSEVELT, 60804
426491,"6535 S CENTRAL AVE, CHICAGO IL 60638",FALSE,6535,6535,S,CENTRAL,AVE,60638,Census Bureau,41.77365258167,-87.76147894949,17031820901,FALSE,6535,6535,S,CENTRAL, 60638
426492,"6535 S CENTRAL AVE, CHICAGO IL 60638",FALSE,6535,6535,S,CENTRAL,AVE,60638,Census Bureau,41.77365258167,-87.76147894949,17031820901,FALSE,6535,6535,S,CENTRAL, 60638
429701,"5022 S LARAMIE AVE, CHICAGO IL 60638",FALSE,5022,5022,S,LARAMIE,AVE,60638,Census Bureau,41.801673425267,-87.752852601685,17031820800,FALSE,5022,5022,S,LARAMIE, 60638
429970,"4660 S LARAMIE AVE, CHICAGO IL 60638",FALSE,4660,4660,S,LARAMIE,AVE,60638,Census Bureau,41.808207203397,-87.752998470991,17031820800,FALSE,4660,4660,S,LARAMIE, 60638
429971,"4660 S LARAMIE AVE, CHICAGO IL 60638",FALSE,4660,4660,S,LARAMIE,AVE,60638,Census Bureau,41.808207203397,-87.752998470991,17031820800,FALSE,4660,4660,S,LARAMIE, 60638
429972,"4660 S LARAMIE AVE, CHICAGO IL 60638",FALSE,4660,4660,S,LARAMIE,AVE,60638,Census Bureau,41.808207203397,-87.752998470991,17031820800,FALSE,4660,4660,S,LARAMIE, 60638
453677,"4740 S LARAMIE AVE, CHICAGO IL 60638",FALSE,4740,4740,S,LARAMIE,AVE,60638,Census Bureau,41.806588377011,-87.752993014572,17031820800,FALSE,4740,4740,S,LARAMIE, 60638
455344,"4914 S LARAMIE AVE, CHICAGO IL 60638",FALSE,4914,4914,S,LARAMIE,AVE,60638,Census Bureau,41.803536691399,-87.752903733583,17031820800,FALSE,4914,4914,S,LARAMIE, 60638
466685,"6601 W GUNNISON ST, CHICAGO IL 60706",FALSE,6601,6601,W,GUNNISON,ST,60706,Census Bureau,41.968311844357,-87.792938253806,17031810600,FALSE,6601,6601,W,GUNNISON, 60706
466686,"6601 W GUNNISON ST, CHICAGO IL 60706",FALSE,6601,6601,W,GUNNISON,ST,60706,Census Bureau,41.968311844357,-87.792938253806,17031810600,FALSE,6601,6601,W,GUNNISON, 60706
466687,"6601 W GUNNISON ST, CHICAGO IL 60706",FALSE,6601,6601,W,GUNNISON,ST,60706,Census Bureau,41.968311844357,-87.792938253806,17031810600,FALSE,6601,6601,W,GUNNISON, 60706
479313,"6759 N IONIA AVE, CHICAGO IL 60646",FALSE,6759,6759,N,IONIA,AVE,60646,Census Bureau,42.003558475585,-87.766137978619,17031807800,FALSE,6759,6759,N,IONIA, 60646
484855,"5042 S LARAMIE AVE, CHICAGO IL 60638",FALSE,5042,5042,S,LARAMIE,AVE,60638,Census Bureau,41.801417548081,-87.752845785578,17031820800,FALSE,5042,5042,S,LARAMIE, 60638
130472,"8001 W BELMONT AVE, CHICAGO IL",FALSE,8001,8001,W,BELMONT,AVE,,Geocodio,41.937546,-87.826836,17031811100,FALSE,8001,8001,W,BELMONT, 60171
148111,"6700 W ALBION AVE, CHICAGO IL 60631",FALSE,6700,6700,W,ALBION,AVE,60631,Geocodio,42.00116,-87.795766,17031808100,FALSE,6700,6700,W,ALBION, 60714
226236,"6620 N OAK PARK AVE, CHICAGO IL 60631",FALSE,6620,6620,N,OAK PARK,AVE,60631,Geocodio,42.001656,-87.795816,17031808100,FALSE,6620,6620,N,OAK PARK, 60714
226868,"6704 W ALBION AVE, CHICAGO IL 60631",FALSE,6704,6704,W,ALBION,AVE,60631,Geocodio,42.001127,-87.795865,17031808100,FALSE,6704,6704,W,ALBION, 60714
226869,"6712 W ALBION AVE, CHICAGO IL 60631",FALSE,6712,6712,W,ALBION,AVE,60631,Geocodio,42.001145,-87.796303,17031808100,FALSE,6712,6712,W,ALBION, 60714
235984,"6616 N OAK PARK AVE, CHICAGO IL 60631",FALSE,6616,6616,N,OAK PARK,AVE,60631,Geocodio,42.001497,-87.796058,17031808100,FALSE,6616,6616,N,OAK PARK, 60714
236013,"6710 W ALBION AVE, CHICAGO IL 60631",FALSE,6710,6710,W,ALBION,AVE,60631,Geocodio,42.001144,-87.796202,17031808100,FALSE,6710,6710,W,ALBION, 60714
348946,"8001 W BELMONT AVE, CHICAGO IL",FALSE,8001,8001,W,BELMONT,AVE,,Geocodio,41.937546,-87.826836,17031811100,FALSE,8001,8001,W,BELMONT, 60171
418983,"E 138TH ST & S BRAINARD, CHICAGO IL 60633",TRUE,,,,,,60633,Geocodio,41.644106,-87.545346,17031825700,TRUE,,,E,138TH PL & S BRAINARD, 60633
418984,"E 138TH ST & S BRAINARD, CHICAGO IL 60633",TRUE,,,,,,60633,Geocodio,41.644106,-87.545346,17031825700,TRUE,,,E,138TH PL & S BRAINARD, 60633
418985,"E 138TH ST & S BRAINARD, CHICAGO IL 60633",TRUE,,,,,,60633,Geocodio,41.644106,-87.545346,17031825700,TRUE,,,E,138TH PL & S BRAINARD, 60633
418986,"E 138TH ST & S BRAINARD, CHICAGO IL 60633",TRUE,,,,,,60633,Geocodio,41.644106,-87.545346,17031825700,TRUE,,,E,138TH PL & S BRAINARD, 60633
418987,"E 138TH ST & S BRAINARD, CHICAGO IL 60633",TRUE,,,,,,60633,Geocodio,41.644106,-87.545346,17031825700,TRUE,,,E,138TH PL & S BRAINARD, 60633
419065,"10400 S PULASKI RD, CHICAGO IL 60655",FALSE,10400,10400,S,PULASKI,RD,60655,Geocodio,41.703918,-87.721146,17031822702,FALSE,10400,10400,S,PULASKI, 60453
419066,"10400 S PULASKI RD, CHICAGO IL 60655",FALSE,10400,10400,S,PULASKI,RD,60655,Geocodio,41.703918,-87.721146,17031822702,FALSE,10400,10400,S,PULASKI, 60453
419559,"W OGDEN & S KENTON AVE, CHICAGO IL 60513",TRUE,,,,,,60513,Geocodio,42.026251,-87.742671,17031807400,TRUE,,,,, 60076
423935,"250 N BREAKWATER ACCESS, CHICAGO IL 60601",FALSE,250,250,N,BREAKWATER ACCESS,,60601,Geocodio,41.887649,-87.610203,17031081403,FALSE,250,250,N,BREAKWATER ACCESS, 60601
423936,"250 N BREAKWATER ACCESS, CHICAGO IL 60601",FALSE,250,250,N,BREAKWATER ACCESS,,60601,Geocodio,41.887649,-87.610203,17031081403,FALSE,250,250,N,BREAKWATER ACCESS, 60601
423937,"250 N BREAKWATER ACCESS, CHICAGO IL 60601",FALSE,250,250,N,BREAKWATER ACCESS,,60601,Geocodio,41.887649,-87.610203,17031081403,FALSE,250,250,N,BREAKWATER ACCESS, 60601
